;FLAVOR:Marlin
;TIME:793
;Filament used: 0.657837m
;Layer height: 0.24
;MINX:0
;MINY:0
;MINZ:0.24
;MAXX:162.249
;MAXY:161.75
;MAXZ:9
;TARGET_MACHINE.NAME:Creality Ender-3 Pro
;HYBRID_SEQUENCE:APPLIED
;POSTPROCESSED
;  [HybridSequentialPrint]
;Generated with Cura_SteamEngine 5.12.0
; Ender 3 Custom Start G-code - heat overlap optimized
G92 E0 ; Reset Extruder

M140 S80.0 ; Start heating bed to final temp
M104 S190.0 ; Keep nozzle at standby temp for now

G28 ; Home all axes
G1 Z5.0 F3000 ; Move Z Axis up a bit during heating to not damage bed

M190 R70.0 ; Wait until bed reaches target-15C
M104 S230.0 ; Now start heating nozzle to final temp

M190 S80.0 ; Wait until bed reaches final temp
M109 S230.0 ; Wait until nozzle reaches final temp

G1 Z2.0 F3000 ; Move Z Axis up little to prevent scratching of Heat Bed
G1 X0.1 Y20 Z0.3 F5000.0 ; Move to start position
G1 X0.1 Y200.0 Z0.3 F1500.0 E15 ; Draw the first line
G1 X0.4 Y200.0 Z0.3 F5000.0 ; Move to side a little
G1 X0.4 Y20 Z0.3 F1500.0 E30 ; Draw the second line
G92 E0 ; Reset Extruder
G1 Z2.0 F3000 ; Move Z Axis up little to prevent scratching of Heat Bed
G1 X5 Y20 Z0.3 F5000.0 ; Move over to prevent blob squish
M82 ;absolute extrusion mode
M83 ;relative extrusion mode
G1 F1200 E-2
;LAYER_COUNT:14
;LAYER:0
M107
M204 S500
M205 X8 Y8
G1 F300 Z0.44
G0 F6000 X99.004 Y61.181
;TYPE:SKIRT
G1 F300 Z0.24
G1 F1200 E2
G1 X99.391 Y60.586 E0.03541
G1 X99.847 Y60.043 E0.03538
G1 X100.368 Y59.561 E0.03541
G1 X100.943 Y59.147 E0.03535
G1 X101.565 Y58.805 E0.03541
G1 X102.166 Y58.563 E0.03232
G1 X102.923 Y58.364 E0.03905
G1 X103.85 Y58.261 E0.04653
G1 X104.318 Y58.25 E0.02336
G1 X115.3 Y58.25 E0.54789
G1 X116.104 Y58.262 E0.04012
G1 X116.75 Y58.311 E0.03232
G1 X117.506 Y58.464 E0.03848
G1 X118.176 Y58.693 E0.03532
G1 X118.816 Y59.002 E0.03546
G1 X119.411 Y59.389 E0.03541
G1 X119.953 Y59.844 E0.03531
G1 X120.397 Y60.316 E0.03233
G1 X120.851 Y60.939 E0.03846
G1 X121.193 Y61.562 E0.03546
G1 X121.454 Y62.22 E0.03532
G1 X121.635 Y62.918 E0.03598
G1 X121.736 Y63.805 E0.04454
G1 X121.75 Y64.318 E0.0256
G1 X121.75 Y75.343 E0.55004
G1 X121.739 Y76.101 E0.03782
G1 X121.69 Y76.747 E0.03232
G1 X121.537 Y77.503 E0.03848
G1 X121.308 Y78.175 E0.03542
G1 X121.029 Y78.759 E0.03229
G1 X120.613 Y79.409 E0.0385
G1 X120.158 Y79.951 E0.03531
G1 X119.638 Y80.435 E0.03544
G1 X119.063 Y80.85 E0.03538
G1 X118.441 Y81.192 E0.03541
G1 X117.783 Y81.453 E0.03532
G1 X117.085 Y81.634 E0.03598
G1 X116.195 Y81.736 E0.04469
G1 X115.67 Y81.75 E0.0262
G1 X104.625 Y81.749 E0.55104
G1 X103.896 Y81.738 E0.03637
G1 X103.25 Y81.689 E0.03232
G1 X102.494 Y81.536 E0.03848
G1 X101.824 Y81.307 E0.03532
G1 X101.184 Y80.998 E0.03546
G1 X100.589 Y80.611 E0.03541
G1 X100.047 Y80.156 E0.03531
G1 X99.603 Y79.684 E0.03233
G1 X99.149 Y79.061 E0.03846
G1 X98.807 Y78.438 E0.03546
G1 X98.546 Y77.78 E0.03532
G1 X98.365 Y77.081 E0.03602
G1 X98.261 Y76.144 E0.04703
G1 X98.25 Y75.658 E0.02425
G1 X98.251 Y64.587 E0.55233
G1 X98.262 Y63.892 E0.03468
G1 X98.32 Y63.184 E0.03544
G1 X98.465 Y62.49 E0.03537
G1 X98.694 Y61.819 E0.03537
G1 X99.004 Y61.181 E0.03539
G0 F6000 X99.425 Y61.451
G1 F1200 X99.775 Y60.906 E0.03231
G1 X100.189 Y60.408 E0.03231
G1 X100.662 Y59.965 E0.03233
G1 X101.186 Y59.584 E0.03232
G1 X101.752 Y59.269 E0.03232
G1 X102.353 Y59.027 E0.03232
G1 X102.979 Y58.861 E0.03231
G1 X103.862 Y58.761 E0.04433
G1 X104.33 Y58.75 E0.02336
G1 X115.293 Y58.75 E0.54695
G1 X116.066 Y58.761 E0.03857
G1 X116.712 Y58.81 E0.03232
G1 X117.347 Y58.938 E0.03232
G1 X117.961 Y59.144 E0.03231
G1 X118.546 Y59.423 E0.03234
G1 X119.091 Y59.773 E0.03231
G1 X119.589 Y60.187 E0.03231
G1 X120.033 Y60.659 E0.03233
G1 X120.414 Y61.182 E0.03228
G1 X120.729 Y61.749 E0.03236
G1 X120.971 Y62.349 E0.03228
G1 X121.138 Y62.975 E0.03232
G1 X121.239 Y63.862 E0.04454
G1 X121.25 Y64.33 E0.02336
G1 X121.25 Y75.336 E0.54909
G1 X121.24 Y76.063 E0.03627
G1 X121.191 Y76.709 E0.03232
G1 X121.063 Y77.344 E0.03232
G1 X120.857 Y77.959 E0.03236
G1 X120.578 Y78.543 E0.03229
G1 X120.229 Y79.089 E0.03233
G1 X119.815 Y79.587 E0.03231
G1 X119.343 Y80.031 E0.03233
G1 X118.82 Y80.413 E0.03231
G1 X118.254 Y80.728 E0.03232
G1 X117.654 Y80.97 E0.03228
G1 X117.028 Y81.137 E0.03232
G1 X116.138 Y81.239 E0.04469
G1 X115.67 Y81.25 E0.02336
G1 X104.632 Y81.249 E0.55069
G1 X103.934 Y81.239 E0.03483
G1 X103.288 Y81.19 E0.03232
G1 X102.653 Y81.062 E0.03232
G1 X102.039 Y80.856 E0.03231
G1 X101.454 Y80.577 E0.03234
G1 X100.909 Y80.227 E0.03231
G1 X100.411 Y79.813 E0.03231
G1 X99.967 Y79.341 E0.03233
G1 X99.586 Y78.818 E0.03228
G1 X99.271 Y78.251 E0.03236
G1 X99.029 Y77.651 E0.03228
G1 X98.862 Y77.025 E0.03232
G1 X98.761 Y76.132 E0.04484
G1 X98.75 Y75.658 E0.02365
G1 X98.751 Y64.595 E0.55194
G1 X98.761 Y63.93 E0.03318
G1 X98.81 Y63.284 E0.03232
G1 X98.939 Y62.649 E0.03233
G1 X99.145 Y62.035 E0.03231
G1 X99.425 Y61.451 E0.03231
G1 F1200 E-2
G1 F300 Z0.44
;MESH:BodyBox.stl
G0 F6000 X104.95 Y64.95
;TYPE:WALL-INNER
G1 F300 Z0.24
G1 F1200 E2
G1 X104.95 Y75.05 E0.50389
G1 X115.05 Y75.05 E0.50389
G1 X115.05 Y64.95 E0.50389
G1 X104.95 Y64.95 E0.50389
G0 F6000 X104.45 Y64.45
;TYPE:WALL-OUTER
G1 F1200 X104.45 Y75.55 E0.55378
G1 X115.55 Y75.55 E0.55378
G1 X115.55 Y64.45 E0.55378
G1 X104.45 Y64.45 E0.55378
G0 F6000 X104.78 Y64.78
G0 X105.398 Y65.398
;TYPE:SKIN
G1 F1200 X114.598 Y65.398 E0.45899
G1 X114.598 Y74.598 E0.45899
G1 X105.398 Y74.598 E0.45899
G1 X105.398 Y65.398 E0.45899
G0 F6000 X114.348 Y66.264
G1 F1200 X113.732 Y65.649 E0.04343
G0 F6000 X113.025 Y65.649
G1 F1200 X114.348 Y66.971 E0.09331
G0 F6000 X114.348 Y67.679
G1 F1200 X112.318 Y65.649 E0.14323
G0 F6000 X111.61 Y65.649
G1 F1200 X114.348 Y68.386 E0.19315
G0 F6000 X114.348 Y69.093
G1 F1200 X110.903 Y65.649 E0.24303
G0 F6000 X110.196 Y65.649
G1 F1200 X114.348 Y69.8 E0.29291
G0 F6000 X114.348 Y70.507
G1 F1200 X109.489 Y65.649 E0.34279
G0 F6000 X108.782 Y65.649
G1 F1200 X114.348 Y71.214 E0.39268
G0 F6000 X114.348 Y71.921
G1 F1200 X108.075 Y65.649 E0.44256
G0 F6000 X107.368 Y65.649
G1 F1200 X114.348 Y72.628 E0.49244
G0 F6000 X114.348 Y73.335
G1 F1200 X106.661 Y65.649 E0.54232
G0 F6000 X105.954 Y65.649
G1 F1200 X114.348 Y74.043 E0.59224
G0 F6000 X113.946 Y74.348
G1 F1200 X105.647 Y66.049 E0.58554
G0 F6000 X105.647 Y66.757
G1 F1200 X113.239 Y74.348 E0.53562
G0 F6000 X112.532 Y74.348
G1 F1200 X105.647 Y67.464 E0.48574
G0 F6000 X105.647 Y68.171
G1 F1200 X111.825 Y74.348 E0.43586
G0 F6000 X111.118 Y74.348
G1 F1200 X105.647 Y68.878 E0.38597
G0 F6000 X105.647 Y69.585
G1 F1200 X110.41 Y74.348 E0.33606
G0 F6000 X109.703 Y74.348
;HYBRID_SEQUENCE:DEFERRED_COMMON_M104 S225
G1 F1200 X105.647 Y70.292 E0.28617
G0 F6000 X105.647 Y70.999
G1 F1200 X108.996 Y74.348 E0.23629
G0 F6000 X108.289 Y74.348
G1 F1200 X105.647 Y71.706 E0.18641
G0 F6000 X105.647 Y72.413
G1 F1200 X107.582 Y74.348 E0.13652
G0 F6000 X106.875 Y74.348
G1 F1200 X105.647 Y73.12 E0.08664
G0 F6000 X105.647 Y73.828
G1 F1200 X106.168 Y74.348 E0.03672
G0 F6000 X106.168 Y74.29
G1 F1200 E-2
G1 F300 Z0.44
;MESH:NONMESH
G0 F6000 X99.425 Y61.451
;TIME_ELAPSED:33.307982
G1 F1200 E-2
M107
G0 F9000 Z9
G0 X104 Y144
M140 S80
M105
;HYBRID_SEQUENCE:SKIPPED_REDUNDANT_M190 S80
M104 S230
M105
;HYBRID_SEQUENCE:SKIPPED_REDUNDANT_M109 S230
;LAYER_COUNT:14
;LAYER:0
G1 F300 Z0.44
G0 F6000 X100.368 Y139.561
;TYPE:SKIRT
G1 F300 Z0.24
G1 F1200 E2
G1 X100.943 Y139.147 E0.03535
G1 X101.565 Y138.805 E0.03541
G1 X102.166 Y138.563 E0.03232
G1 X102.923 Y138.364 E0.03905
G1 X103.85 Y138.261 E0.04653
G1 X104.318 Y138.25 E0.02336
G1 X115.3 Y138.25 E0.54789
G1 X116.104 Y138.262 E0.04012
G1 X116.75 Y138.311 E0.03232
G1 X117.506 Y138.464 E0.03848
G1 X118.176 Y138.693 E0.03532
G1 X118.816 Y139.002 E0.03546
G1 X119.411 Y139.389 E0.03541
G1 X119.953 Y139.844 E0.03531
G1 X120.397 Y140.316 E0.03233
G1 X120.851 Y140.939 E0.03846
G1 X121.193 Y141.562 E0.03546
G1 X121.454 Y142.22 E0.03532
G1 X121.635 Y142.918 E0.03598
G1 X121.736 Y143.805 E0.04454
G1 X121.75 Y144.318 E0.0256
G1 X121.75 Y155.343 E0.55004
G1 X121.739 Y156.101 E0.03782
G1 X121.69 Y156.747 E0.03232
G1 X121.537 Y157.503 E0.03848
G1 X121.308 Y158.175 E0.03542
G1 X121.029 Y158.759 E0.03229
G1 X120.613 Y159.409 E0.0385
G1 X120.158 Y159.951 E0.03531
G1 X119.638 Y160.435 E0.03544
G1 X119.063 Y160.85 E0.03538
G1 X118.441 Y161.192 E0.03541
G1 X117.783 Y161.453 E0.03532
G1 X117.085 Y161.634 E0.03598
G1 X116.195 Y161.736 E0.04469
G1 X115.67 Y161.75 E0.0262
G1 X104.625 Y161.749 E0.55104
G1 X103.896 Y161.738 E0.03637
G1 X103.25 Y161.689 E0.03232
G1 X102.494 Y161.536 E0.03848
G1 X101.824 Y161.307 E0.03532
G1 X101.184 Y160.998 E0.03546
G1 X100.589 Y160.611 E0.03541
G1 X100.047 Y160.156 E0.03531
G1 X99.603 Y159.684 E0.03233
G1 X99.149 Y159.061 E0.03846
G1 X98.807 Y158.438 E0.03546
G1 X98.546 Y157.78 E0.03532
G1 X98.365 Y157.081 E0.03602
G1 X98.261 Y156.144 E0.04703
G1 X98.25 Y155.658 E0.02425
G1 X98.251 Y144.587 E0.55233
G1 X98.262 Y143.892 E0.03468
G1 X98.32 Y143.184 E0.03544
G1 X98.465 Y142.49 E0.03537
G1 X98.694 Y141.819 E0.03537
G1 X99.004 Y141.181 E0.03539
G1 X99.391 Y140.586 E0.03541
G1 X99.847 Y140.043 E0.03538
G1 X100.368 Y139.561 E0.03541
G0 F6000 X100.662 Y139.965
G1 F1200 X101.186 Y139.584 E0.03232
G1 X101.752 Y139.269 E0.03232
G1 X102.353 Y139.027 E0.03232
G1 X102.979 Y138.861 E0.03231
G1 X103.862 Y138.761 E0.04433
G1 X104.33 Y138.75 E0.02336
G1 X115.293 Y138.75 E0.54695
G1 X116.066 Y138.761 E0.03857
G1 X116.712 Y138.81 E0.03232
G1 X117.347 Y138.938 E0.03232
G1 X117.961 Y139.144 E0.03231
G1 X118.546 Y139.423 E0.03234
G1 X119.091 Y139.773 E0.03231
G1 X119.589 Y140.187 E0.03231
G1 X120.033 Y140.659 E0.03233
G1 X120.414 Y141.182 E0.03228
G1 X120.729 Y141.749 E0.03236
G1 X120.971 Y142.349 E0.03228
G1 X121.138 Y142.975 E0.03232
G1 X121.239 Y143.862 E0.04454
G1 X121.25 Y144.33 E0.02336
G1 X121.25 Y155.336 E0.54909
G1 X121.24 Y156.063 E0.03627
G1 X121.191 Y156.709 E0.03232
G1 X121.063 Y157.344 E0.03232
G1 X120.857 Y157.959 E0.03236
G1 X120.578 Y158.543 E0.03229
G1 X120.229 Y159.089 E0.03233
G1 X119.815 Y159.587 E0.03231
G1 X119.343 Y160.031 E0.03233
G1 X118.82 Y160.413 E0.03231
G1 X118.254 Y160.728 E0.03232
G1 X117.654 Y160.97 E0.03228
G1 X117.028 Y161.137 E0.03232
G1 X116.138 Y161.239 E0.04469
G1 X115.67 Y161.25 E0.02336
G1 X104.632 Y161.249 E0.55069
G1 X103.934 Y161.239 E0.03483
G1 X103.288 Y161.19 E0.03232
G1 X102.653 Y161.062 E0.03232
G1 X102.039 Y160.856 E0.03231
G1 X101.454 Y160.577 E0.03234
G1 X100.909 Y160.227 E0.03231
G1 X100.411 Y159.813 E0.03231
G1 X99.967 Y159.341 E0.03233
G1 X99.586 Y158.818 E0.03228
G1 X99.271 Y158.251 E0.03236
G1 X99.029 Y157.651 E0.03228
G1 X98.862 Y157.025 E0.03232
G1 X98.761 Y156.132 E0.04484
G1 X98.75 Y155.658 E0.02365
G1 X98.751 Y144.595 E0.55194
G1 X98.761 Y143.93 E0.03318
G1 X98.81 Y143.284 E0.03232
G1 X98.939 Y142.649 E0.03233
G1 X99.145 Y142.035 E0.03231
G1 X99.425 Y141.451 E0.03231
G1 X99.775 Y140.906 E0.03231
G1 X100.189 Y140.408 E0.03231
G1 X100.662 Y139.965 E0.03233
G1 F1200 E-2
G1 F300 Z0.44
;MESH:BodyBox.stl(1)
G0 F6000 X104.95 Y144.95
;TYPE:WALL-INNER
G1 F300 Z0.24
G1 F1200 E2
G1 X104.95 Y155.05 E0.50389
G1 X115.05 Y155.05 E0.50389
G1 X115.05 Y144.95 E0.50389
G1 X104.95 Y144.95 E0.50389
G0 F6000 X104.45 Y144.45
;TYPE:WALL-OUTER
G1 F1200 X104.45 Y155.55 E0.55378
G1 X115.55 Y155.55 E0.55378
G1 X115.55 Y144.45 E0.55378
G1 X104.45 Y144.45 E0.55378
G0 F6000 X104.78 Y144.78
G0 X105.398 Y145.398
;TYPE:SKIN
G1 F1200 X114.598 Y145.398 E0.45899
G1 X114.598 Y154.598 E0.45899
G1 X105.398 Y154.598 E0.45899
G1 X105.398 Y145.398 E0.45899
G0 F6000 X114.348 Y146.168
G1 F1200 X113.828 Y145.648 E0.03669
G0 F6000 X113.121 Y145.648
G1 F1200 X114.348 Y146.875 E0.08657
G0 F6000 X114.348 Y147.582
G1 F1200 X112.414 Y145.648 E0.13645
G0 F6000 X111.707 Y145.648
G1 F1200 X114.348 Y148.289 E0.18634
G0 F6000 X114.348 Y148.997
G1 F1200 X111 Y145.648 E0.23625
G0 F6000 X110.292 Y145.648
G1 F1200 X114.348 Y149.704 E0.28617
G0 F6000 X114.348 Y150.411
G1 F1200 X109.585 Y145.648 E0.33606
G0 F6000 X108.878 Y145.648
G1 F1200 X114.348 Y151.118 E0.38594
G0 F6000 X114.348 Y151.825
G1 F1200 X108.171 Y145.648 E0.43582
G0 F6000 X107.464 Y145.648
G1 F1200 X114.348 Y152.532 E0.4857
G0 F6000 X114.348 Y153.239
G1 F1200 X106.757 Y145.648 E0.53559
G0 F6000 X106.05 Y145.648
G1 F1200 X114.348 Y153.946 E0.58547
G0 F6000 X114.043 Y154.348
G1 F1200 X105.648 Y145.953 E0.59231
G0 F6000 X105.648 Y146.66
G1 F1200 X113.336 Y154.348 E0.54243
G0 F6000 X112.629 Y154.348
G1 F1200 X105.648 Y147.367 E0.49255
G0 F6000 X105.648 Y148.075
G1 F1200 X111.922 Y154.348 E0.44263
G0 F6000 X111.214 Y154.348
G1 F1200 X105.648 Y148.782 E0.39271
G0 F6000 X105.648 Y149.489
G1 F1200 X110.507 Y154.348 E0.34283
G0 F6000 X109.8 Y154.348
;HYBRID_SEQUENCE:DEFERRED_COMMON_M104 S225
G1 F1200 X105.648 Y150.196 E0.29295
G0 F6000 X105.648 Y150.903
G1 F1200 X109.093 Y154.348 E0.24306
G0 F6000 X108.386 Y154.348
G1 F1200 X105.648 Y151.61 E0.19318
G0 F6000 X105.648 Y152.317
G1 F1200 X107.679 Y154.348 E0.1433
G0 F6000 X106.972 Y154.348
G1 F1200 X105.648 Y153.024 E0.09342
G0 F6000 X105.648 Y153.731
G1 F1200 X106.265 Y154.348 E0.04353
G0 F6000 X106.265 Y154.29
G1 F1200 E-2
G1 F300 Z0.44
;MESH:NONMESH
G0 F6000 X101.186 Y139.584
;TIME_ELAPSED:231.192358
G1 F1200 E-2
M107
G0 F9000 Z9
G0 X64 Y104
M140 S80
M105
;HYBRID_SEQUENCE:SKIPPED_REDUNDANT_M190 S80
M104 S230
M105
;HYBRID_SEQUENCE:SKIPPED_REDUNDANT_M109 S230
;LAYER_COUNT:14
;LAYER:0
G1 F300 Z0.44
G0 F6000 X60.943 Y99.147
;TYPE:SKIRT
G1 F300 Z0.24
G1 F1200 E2
G1 X61.565 Y98.805 E0.03541
G1 X62.166 Y98.563 E0.03232
G1 X62.923 Y98.364 E0.03905
G1 X63.85 Y98.261 E0.04653
G1 X64.318 Y98.25 E0.02336
G1 X75.3 Y98.25 E0.54789
G1 X76.104 Y98.262 E0.04012
G1 X76.75 Y98.311 E0.03232
G1 X77.506 Y98.464 E0.03848
G1 X78.176 Y98.693 E0.03532
G1 X78.816 Y99.002 E0.03546
G1 X79.411 Y99.389 E0.03541
G1 X79.953 Y99.844 E0.03531
G1 X80.397 Y100.316 E0.03233
G1 X80.851 Y100.939 E0.03846
G1 X81.193 Y101.562 E0.03546
G1 X81.454 Y102.22 E0.03532
G1 X81.635 Y102.918 E0.03598
G1 X81.736 Y103.805 E0.04454
G1 X81.75 Y104.318 E0.0256
G1 X81.75 Y115.343 E0.55004
G1 X81.739 Y116.101 E0.03782
G1 X81.69 Y116.747 E0.03232
G1 X81.537 Y117.503 E0.03848
G1 X81.308 Y118.175 E0.03542
G1 X81.029 Y118.759 E0.03229
G1 X80.613 Y119.409 E0.0385
G1 X80.158 Y119.951 E0.03531
G1 X79.638 Y120.435 E0.03544
G1 X79.063 Y120.85 E0.03538
G1 X78.441 Y121.192 E0.03541
G1 X77.783 Y121.453 E0.03532
G1 X77.085 Y121.634 E0.03598
G1 X76.195 Y121.736 E0.04469
G1 X75.67 Y121.75 E0.0262
G1 X64.625 Y121.749 E0.55104
G1 X63.896 Y121.738 E0.03637
G1 X63.25 Y121.689 E0.03232
G1 X62.494 Y121.536 E0.03848
G1 X61.824 Y121.307 E0.03532
G1 X61.184 Y120.998 E0.03546
G1 X60.589 Y120.611 E0.03541
G1 X60.047 Y120.156 E0.03531
G1 X59.603 Y119.684 E0.03233
G1 X59.149 Y119.061 E0.03846
G1 X58.807 Y118.438 E0.03546
G1 X58.546 Y117.78 E0.03532
G1 X58.365 Y117.081 E0.03602
G1 X58.261 Y116.144 E0.04703
G1 X58.25 Y115.658 E0.02425
G1 X58.251 Y104.587 E0.55233
G1 X58.262 Y103.892 E0.03468
G1 X58.32 Y103.184 E0.03544
G1 X58.465 Y102.49 E0.03537
G1 X58.694 Y101.819 E0.03537
G1 X59.004 Y101.181 E0.03539
G1 X59.391 Y100.586 E0.03541
G1 X59.847 Y100.043 E0.03538
G1 X60.368 Y99.561 E0.03541
G1 X60.943 Y99.147 E0.03535
G0 F6000 X61.186 Y99.584
G1 F1200 X61.752 Y99.269 E0.03232
G1 X62.353 Y99.027 E0.03232
G1 X62.979 Y98.861 E0.03231
G1 X63.862 Y98.761 E0.04433
G1 X64.33 Y98.75 E0.02336
G1 X75.293 Y98.75 E0.54695
G1 X76.066 Y98.761 E0.03857
G1 X76.712 Y98.81 E0.03232
G1 X77.347 Y98.938 E0.03232
G1 X77.961 Y99.144 E0.03231
G1 X78.546 Y99.423 E0.03234
G1 X79.091 Y99.773 E0.03231
G1 X79.589 Y100.187 E0.03231
G1 X80.033 Y100.659 E0.03233
G1 X80.414 Y101.182 E0.03228
G1 X80.729 Y101.749 E0.03236
G1 X80.971 Y102.349 E0.03228
G1 X81.138 Y102.975 E0.03232
G1 X81.239 Y103.862 E0.04454
G1 X81.25 Y104.33 E0.02336
G1 X81.25 Y115.336 E0.54909
G1 X81.24 Y116.063 E0.03627
G1 X81.191 Y116.709 E0.03232
G1 X81.063 Y117.344 E0.03232
G1 X80.857 Y117.959 E0.03236
G1 X80.578 Y118.543 E0.03229
G1 X80.229 Y119.089 E0.03233
G1 X79.815 Y119.587 E0.03231
G1 X79.343 Y120.031 E0.03233
G1 X78.82 Y120.413 E0.03231
G1 X78.254 Y120.728 E0.03232
G1 X77.654 Y120.97 E0.03228
G1 X77.028 Y121.137 E0.03232
G1 X76.138 Y121.239 E0.04469
G1 X75.67 Y121.25 E0.02336
G1 X64.632 Y121.249 E0.55069
G1 X63.934 Y121.239 E0.03483
G1 X63.288 Y121.19 E0.03232
G1 X62.653 Y121.062 E0.03232
G1 X62.039 Y120.856 E0.03231
G1 X61.454 Y120.577 E0.03234
G1 X60.909 Y120.227 E0.03231
G1 X60.411 Y119.813 E0.03231
G1 X59.967 Y119.341 E0.03233
G1 X59.586 Y118.818 E0.03228
G1 X59.271 Y118.251 E0.03236
G1 X59.029 Y117.651 E0.03228
G1 X58.862 Y117.025 E0.03232
G1 X58.761 Y116.132 E0.04484
G1 X58.75 Y115.658 E0.02365
G1 X58.751 Y104.595 E0.55194
G1 X58.761 Y103.93 E0.03318
G1 X58.81 Y103.284 E0.03232
G1 X58.939 Y102.649 E0.03233
G1 X59.145 Y102.035 E0.03231
G1 X59.425 Y101.451 E0.03231
G1 X59.775 Y100.906 E0.03231
G1 X60.189 Y100.408 E0.03231
G1 X60.662 Y99.965 E0.03233
G1 X61.186 Y99.584 E0.03232
G1 F1200 E-2
G1 F300 Z0.44
;MESH:BodyBox.stl(2)
G0 F6000 X64.95 Y104.95
;TYPE:WALL-INNER
G1 F300 Z0.24
G1 F1200 E2
G1 X64.95 Y115.05 E0.50389
G1 X75.05 Y115.05 E0.50389
G1 X75.05 Y104.95 E0.50389
G1 X64.95 Y104.95 E0.50389
G0 F6000 X64.45 Y104.45
;TYPE:WALL-OUTER
G1 F1200 X64.45 Y115.55 E0.55378
G1 X75.55 Y115.55 E0.55378
G1 X75.55 Y104.45 E0.55378
G1 X64.45 Y104.45 E0.55378
G0 F6000 X64.78 Y104.78
G0 X65.398 Y105.398
;TYPE:SKIN
G1 F1200 X74.598 Y105.398 E0.45899
G1 X74.598 Y114.598 E0.45899
G1 X65.398 Y114.598 E0.45899
G1 X65.398 Y105.398 E0.45899
G0 F6000 X74.348 Y106.168
G1 F1200 X73.828 Y105.648 E0.03669
G0 F6000 X73.121 Y105.648
G1 F1200 X74.348 Y106.875 E0.08657
G0 F6000 X74.348 Y107.582
G1 F1200 X72.414 Y105.648 E0.13645
G0 F6000 X71.707 Y105.648
G1 F1200 X74.348 Y108.289 E0.18634
G0 F6000 X74.348 Y108.996
G1 F1200 X71 Y105.648 E0.23622
G0 F6000 X70.293 Y105.648
G1 F1200 X74.348 Y109.703 E0.2861
G0 F6000 X74.348 Y110.41
G1 F1200 X69.586 Y105.648 E0.33598
G0 F6000 X68.879 Y105.648
G1 F1200 X74.348 Y111.118 E0.3859
G0 F6000 X74.348 Y111.825
G1 F1200 X68.171 Y105.648 E0.43582
G0 F6000 X67.464 Y105.648
G1 F1200 X74.348 Y112.532 E0.4857
G0 F6000 X74.348 Y113.239
G1 F1200 X66.757 Y105.648 E0.53559
G0 F6000 X66.05 Y105.648
G1 F1200 X74.348 Y113.946 E0.58547
G0 F6000 X74.043 Y114.348
G1 F1200 X65.648 Y105.953 E0.59231
G0 F6000 X65.648 Y106.66
G1 F1200 X73.335 Y114.348 E0.54239
G0 F6000 X72.628 Y114.348
G1 F1200 X65.648 Y107.367 E0.49251
G0 F6000 X65.648 Y108.074
G1 F1200 X71.921 Y114.348 E0.44263
G0 F6000 X71.214 Y114.348
G1 F1200 X65.648 Y108.781 E0.39275
G0 F6000 X65.648 Y109.488
G1 F1200 X70.507 Y114.348 E0.34286
G0 F6000 X69.8 Y114.348
;HYBRID_SEQUENCE:DEFERRED_COMMON_M104 S225
G1 F1200 X65.648 Y110.196 E0.29295
G0 F6000 X65.648 Y110.903
G1 F1200 X69.093 Y114.348 E0.24306
G0 F6000 X68.386 Y114.348
G1 F1200 X65.648 Y111.61 E0.19318
G0 F6000 X65.648 Y112.317
G1 F1200 X67.679 Y114.348 E0.1433
G0 F6000 X66.971 Y114.348
G1 F1200 X65.648 Y113.024 E0.09338
G0 F6000 X65.648 Y113.731
G1 F1200 X66.264 Y114.348 E0.0435
G0 F6000 X66.264 Y114.29
G1 F1200 E-2
G1 F300 Z0.44
;MESH:NONMESH
G0 F6000 X61.186 Y99.584
;TIME_ELAPSED:428.659966
G1 F1200 E-2
M107
G0 F9000 Z9
G0 X144.499 Y104
M140 S80
M105
;HYBRID_SEQUENCE:SKIPPED_REDUNDANT_M190 S80
M104 S230
M105
;HYBRID_SEQUENCE:SKIPPED_REDUNDANT_M109 S230
;LAYER_COUNT:14
;LAYER:0
G1 F300 Z0.44
G0 F6000 X139.89 Y100.586
;TYPE:SKIRT
G1 F300 Z0.24
G1 F1200 E2
G1 X140.346 Y100.043 E0.03538
G1 X140.867 Y99.561 E0.03541
G1 X141.442 Y99.147 E0.03535
G1 X142.064 Y98.805 E0.03541
G1 X142.665 Y98.563 E0.03232
G1 X143.422 Y98.364 E0.03905
G1 X144.349 Y98.261 E0.04653
G1 X144.817 Y98.25 E0.02336
G1 X155.799 Y98.25 E0.54789
G1 X156.603 Y98.262 E0.04012
G1 X157.249 Y98.311 E0.03232
G1 X158.005 Y98.464 E0.03848
G1 X158.675 Y98.693 E0.03532
G1 X159.315 Y99.002 E0.03546
G1 X159.91 Y99.389 E0.03541
G1 X160.452 Y99.844 E0.03531
G1 X160.896 Y100.316 E0.03233
G1 X161.35 Y100.939 E0.03846
G1 X161.692 Y101.562 E0.03546
G1 X161.953 Y102.22 E0.03532
G1 X162.134 Y102.918 E0.03598
G1 X162.235 Y103.805 E0.04454
G1 X162.249 Y104.318 E0.0256
G1 X162.249 Y115.343 E0.55004
G1 X162.238 Y116.101 E0.03782
G1 X162.189 Y116.747 E0.03232
G1 X162.036 Y117.503 E0.03848
G1 X161.807 Y118.175 E0.03542
G1 X161.528 Y118.759 E0.03229
G1 X161.112 Y119.409 E0.0385
G1 X160.657 Y119.951 E0.03531
G1 X160.137 Y120.435 E0.03544
G1 X159.562 Y120.85 E0.03538
G1 X158.94 Y121.192 E0.03541
G1 X158.282 Y121.453 E0.03532
G1 X157.584 Y121.634 E0.03598
G1 X156.694 Y121.736 E0.04469
G1 X156.169 Y121.75 E0.0262
G1 X145.124 Y121.749 E0.55104
G1 X144.395 Y121.738 E0.03637
G1 X143.749 Y121.689 E0.03232
G1 X142.993 Y121.536 E0.03848
G1 X142.323 Y121.307 E0.03532
G1 X141.683 Y120.998 E0.03546
G1 X141.088 Y120.611 E0.03541
G1 X140.546 Y120.156 E0.03531
G1 X140.102 Y119.684 E0.03233
G1 X139.648 Y119.061 E0.03846
G1 X139.306 Y118.438 E0.03546
G1 X139.045 Y117.78 E0.03532
G1 X138.864 Y117.081 E0.03602
G1 X138.76 Y116.144 E0.04703
G1 X138.749 Y115.658 E0.02425
G1 X138.75 Y104.587 E0.55233
G1 X138.761 Y103.892 E0.03468
G1 X138.819 Y103.184 E0.03544
G1 X138.964 Y102.49 E0.03537
G1 X139.193 Y101.819 E0.03537
G1 X139.503 Y101.181 E0.03539
G1 X139.89 Y100.586 E0.03541
G0 F6000 X140.274 Y100.906
G1 F1200 X140.688 Y100.408 E0.03231
G1 X141.161 Y99.965 E0.03233
G1 X141.685 Y99.584 E0.03232
G1 X142.251 Y99.269 E0.03232
G1 X142.852 Y99.027 E0.03232
G1 X143.478 Y98.861 E0.03231
G1 X144.361 Y98.761 E0.04433
G1 X144.829 Y98.75 E0.02336
G1 X155.792 Y98.75 E0.54695
G1 X156.565 Y98.761 E0.03857
G1 X157.211 Y98.81 E0.03232
G1 X157.846 Y98.938 E0.03232
G1 X158.46 Y99.144 E0.03231
G1 X159.045 Y99.423 E0.03234
G1 X159.59 Y99.773 E0.03231
G1 X160.088 Y100.187 E0.03231
G1 X160.532 Y100.659 E0.03233
G1 X160.913 Y101.182 E0.03228
G1 X161.228 Y101.749 E0.03236
G1 X161.47 Y102.349 E0.03228
G1 X161.637 Y102.975 E0.03232
G1 X161.738 Y103.862 E0.04454
G1 X161.749 Y104.33 E0.02336
G1 X161.749 Y115.336 E0.54909
G1 X161.739 Y116.063 E0.03627
G1 X161.69 Y116.709 E0.03232
G1 X161.562 Y117.344 E0.03232
G1 X161.356 Y117.959 E0.03236
G1 X161.077 Y118.543 E0.03229
G1 X160.728 Y119.089 E0.03233
G1 X160.314 Y119.587 E0.03231
G1 X159.842 Y120.031 E0.03233
G1 X159.319 Y120.413 E0.03231
G1 X158.753 Y120.728 E0.03232
G1 X158.153 Y120.97 E0.03228
G1 X157.527 Y121.137 E0.03232
G1 X156.637 Y121.239 E0.04469
G1 X156.169 Y121.25 E0.02336
G1 X145.131 Y121.249 E0.55069
G1 X144.433 Y121.239 E0.03483
G1 X143.787 Y121.19 E0.03232
G1 X143.152 Y121.062 E0.03232
G1 X142.538 Y120.856 E0.03231
G1 X141.953 Y120.577 E0.03234
G1 X141.408 Y120.227 E0.03231
G1 X140.91 Y119.813 E0.03231
G1 X140.466 Y119.341 E0.03233
G1 X140.085 Y118.818 E0.03228
G1 X139.77 Y118.251 E0.03236
G1 X139.528 Y117.651 E0.03228
G1 X139.361 Y117.025 E0.03232
G1 X139.26 Y116.132 E0.04484
G1 X139.249 Y115.658 E0.02365
G1 X139.25 Y104.595 E0.55194
G1 X139.26 Y103.93 E0.03318
G1 X139.309 Y103.284 E0.03232
G1 X139.438 Y102.649 E0.03233
G1 X139.644 Y102.035 E0.03231
G1 X139.924 Y101.451 E0.03231
G1 X140.274 Y100.906 E0.03231
G1 F1200 E-2
G1 F300 Z0.44
;MESH:BodyBox.stl(3)
G0 F6000 X145.446 Y104.95
;TYPE:WALL-INNER
G1 F300 Z0.24
G1 F1200 E2
G1 X145.446 Y115.05 E0.50389
G1 X155.546 Y115.05 E0.50389
G1 X155.546 Y104.95 E0.50389
G1 X145.446 Y104.95 E0.50389
G0 F6000 X144.946 Y104.45
;TYPE:WALL-OUTER
G1 F1200 X144.946 Y115.55 E0.55378
G1 X156.046 Y115.55 E0.55378
G1 X156.046 Y104.45 E0.55378
G1 X144.946 Y104.45 E0.55378
G0 F6000 X145.279 Y104.78
G0 X145.894 Y105.398
;TYPE:SKIN
G1 F1200 X155.094 Y105.398 E0.45899
G1 X155.094 Y114.598 E0.45899
G1 X145.894 Y114.598 E0.45899
G1 X145.894 Y105.398 E0.45899
G0 F6000 X154.844 Y106.054
G1 F1200 X154.438 Y105.648 E0.02865
G0 F6000 X153.731 Y105.648
G1 F1200 X154.844 Y106.761 E0.07853
G0 F6000 X154.844 Y107.468
G1 F1200 X153.024 Y105.648 E0.12841
G0 F6000 X152.317 Y105.648
G1 F1200 X154.844 Y108.175 E0.17829
G0 F6000 X154.844 Y108.882
G1 F1200 X151.61 Y105.648 E0.22818
G0 F6000 X150.903 Y105.648
G1 F1200 X154.844 Y109.59 E0.27809
G0 F6000 X154.844 Y110.297
G1 F1200 X150.196 Y105.648 E0.32798
G0 F6000 X149.489 Y105.648
G1 F1200 X154.844 Y111.004 E0.37786
G0 F6000 X154.844 Y111.711
G1 F1200 X148.782 Y105.648 E0.42774
G0 F6000 X148.075 Y105.648
G1 F1200 X154.844 Y112.418 E0.47762
G0 F6000 X154.844 Y113.125
G1 F1200 X147.367 Y105.648 E0.52754
G0 F6000 X146.66 Y105.648
G1 F1200 X154.844 Y113.832 E0.57743
G0 F6000 X154.653 Y114.348
G1 F1200 X146.144 Y105.839 E0.60036
G0 F6000 X146.144 Y106.546
G1 F1200 X153.946 Y114.348 E0.55047
G0 F6000 X153.239 Y114.348
G1 F1200 X146.144 Y107.253 E0.50059
G0 F6000 X146.144 Y107.96
G1 F1200 X152.531 Y114.348 E0.45067
G0 F6000 X151.824 Y114.348
G1 F1200 X146.144 Y108.667 E0.40079
G0 F6000 X146.144 Y109.375
G1 F1200 X151.117 Y114.348 E0.35087
G0 F6000 X150.41 Y114.348
M104 S225
G1 F1200 X146.144 Y110.082 E0.30099
G0 F6000 X146.144 Y110.789
G1 F1200 X149.703 Y114.348 E0.25111
G0 F6000 X148.996 Y114.348
G1 F1200 X146.144 Y111.496 E0.20122
G0 F6000 X146.144 Y112.203
G1 F1200 X148.289 Y114.348 E0.15134
G0 F6000 X147.582 Y114.348
G1 F1200 X146.144 Y112.91 E0.10146
G0 F6000 X146.144 Y113.617
G1 F1200 X146.875 Y114.348 E0.05158
G0 F6000 X146.875 Y114.29
G1 F1200 E-2
G1 F300 Z0.44
;MESH:NONMESH
G0 F6000 X140.274 Y100.906
;TIME_ELAPSED:626.159921
;LAYER:1
;TYPE:CUSTOM
;HYBRID_SEQUENCE:SAFE_TRANSITION
G90 ; hybrid: absolute positioning
M83 ; hybrid: restore relative extrusion after G90
G0 Z14.000 ; hybrid: clear completed object
G0 X99.425 Y61.451 ; hybrid: move above next object
G0 Z0.440 ; hybrid: descend to target layer

M140 S75
M106 S29.8
G0 F7500 Z0.72
;TYPE:SKIRT
G1 F300 Z0.52
G1 F1200 E2
G1 X99.775 Y60.906 E0.0377
G1 X100.189 Y60.408 E0.03769
G1 X100.662 Y59.965 E0.03772
G1 X101.186 Y59.584 E0.03771
G1 X101.752 Y59.269 E0.0377
G1 X102.353 Y59.027 E0.03771
G1 X102.979 Y58.861 E0.0377
G1 X103.862 Y58.761 E0.05172
G1 X104.33 Y58.75 E0.02725
G1 X115.293 Y58.75 E0.6381
G1 X116.066 Y58.761 E0.045
G1 X116.712 Y58.81 E0.03771
G1 X117.347 Y58.938 E0.0377
G1 X117.961 Y59.144 E0.0377
G1 X118.546 Y59.423 E0.03772
G1 X119.091 Y59.773 E0.0377
G1 X119.589 Y60.187 E0.03769
G1 X120.033 Y60.659 E0.03772
G1 X120.414 Y61.182 E0.03766
G1 X120.729 Y61.749 E0.03775
G1 X120.971 Y62.349 E0.03766
G1 X121.138 Y62.975 E0.03771
G1 X121.239 Y63.862 E0.05196
G1 X121.25 Y64.33 E0.02725
G1 X121.25 Y75.336 E0.64061
G1 X121.24 Y76.063 E0.04232
G1 X121.191 Y76.709 E0.03771
G1 X121.063 Y77.344 E0.0377
G1 X120.857 Y77.959 E0.03775
G1 X120.578 Y78.543 E0.03767
G1 X120.229 Y79.089 E0.03772
G1 X119.815 Y79.587 E0.03769
G1 X119.343 Y80.031 E0.03772
G1 X118.82 Y80.413 E0.0377
G1 X118.254 Y80.728 E0.0377
G1 X117.654 Y80.97 E0.03766
G1 X117.028 Y81.137 E0.03771
G1 X116.138 Y81.239 E0.05214
G1 X115.67 Y81.25 E0.02725
G1 X104.632 Y81.249 E0.64247
G1 X103.934 Y81.239 E0.04063
G1 X103.288 Y81.19 E0.03771
G1 X102.653 Y81.062 E0.0377
G1 X102.039 Y80.856 E0.0377
G1 X101.454 Y80.577 E0.03772
G1 X100.909 Y80.227 E0.0377
G1 X100.411 Y79.813 E0.03769
G1 X99.967 Y79.341 E0.03772
G1 X99.586 Y78.818 E0.03766
G1 X99.271 Y78.251 E0.03775
G1 X99.029 Y77.651 E0.03766
G1 X98.862 Y77.025 E0.03771
G1 X98.761 Y76.132 E0.05231
G1 X98.75 Y75.658 E0.0276
G1 X98.751 Y64.595 E0.64392
G1 X98.761 Y63.93 E0.03871
G1 X98.81 Y63.284 E0.03771
G1 X98.939 Y62.649 E0.03772
G1 X99.145 Y62.035 E0.0377
G1 X99.425 Y61.451 E0.0377
G1 F1200 E-2
G1 F300 Z0.72
;MESH:BodyBox.stl
G0 F7500 X105.25 Y65.25
;TYPE:WALL-INNER
G1 F300 Z0.52
G1 F1200 E2
G1 F1350 X105.25 Y74.75 E0.55295
G1 X114.75 Y74.75 E0.55295
G1 X114.75 Y65.25 E0.55295
G1 X105.25 Y65.25 E0.55295
G0 F7500 X104.75 Y64.75
G1 F1350 X104.75 Y75.25 E0.61115
G1 X115.25 Y75.25 E0.61115
G1 X115.25 Y64.75 E0.61115
G1 X104.75 Y64.75 E0.61115
G0 F7500 X104.25 Y64.25
;TYPE:WALL-OUTER
G1 F1500 X104.25 Y75.75 E0.66936
G1 X115.75 Y75.75 E0.66936
G1 X115.75 Y64.25 E0.66936
G1 X104.25 Y64.25 E0.66936
G1 F1200 E-2
G0 F7500 X104.58 Y64.58
G0 X105.698 Y65.698
;TYPE:SKIN
G1 F1200 E2
G1 F1350 X114.298 Y65.698 E0.50057
G1 X114.298 Y74.298 E0.50057
G1 X105.698 Y74.298 E0.50057
G1 X105.698 Y65.698 E0.50057
G0 F7500 X105.948 Y66.586
G1 F1350 X106.586 Y65.948 E0.05252
G0 F7500 X107.294 Y65.948
G1 F1350 X105.948 Y67.293 E0.11075
G0 F7500 X105.948 Y68
G1 F1350 X108.001 Y65.948 E0.16895
G0 F7500 X108.708 Y65.948
G1 F1350 X105.948 Y68.707 E0.22715
G0 F7500 X105.948 Y69.415
G1 F1350 X109.415 Y65.948 E0.28538
G0 F7500 X110.122 Y65.948
G1 F1350 X105.948 Y70.122 E0.34358
G0 F7500 X105.948 Y70.829
G1 F1350 X110.829 Y65.948 E0.40178
G0 F7500 X111.536 Y65.948
G1 F1350 X105.948 Y71.536 E0.45997
G0 F7500 X105.948 Y72.243
G1 F1350 X112.243 Y65.948 E0.51817
G0 F7500 X112.95 Y65.948
G1 F1350 X105.948 Y72.95 E0.57637
G0 F7500 X105.948 Y73.657
G1 F1350 X113.658 Y65.948 E0.6346
G0 F7500 X114.048 Y66.264
G1 F1350 X106.264 Y74.048 E0.64074
G0 F7500 X106.971 Y74.048
G1 F1350 X114.048 Y66.971 E0.58254
G0 F7500 X114.048 Y67.679
G1 F1350 X107.678 Y74.048 E0.5243
G0 F7500 X108.385 Y74.048
G1 F1350 X114.048 Y68.386 E0.46611
G0 F7500 X114.048 Y69.093
G1 F1350 X109.092 Y74.048 E0.40791
G0 F7500 X109.8 Y74.048
G1 F1350 X114.048 Y69.8 E0.34967
G0 F7500 X114.048 Y70.507
G1 F1350 X110.507 Y74.048 E0.29148
G0 F7500 X111.214 Y74.048
G1 F1350 X114.048 Y71.214 E0.23328
G0 F7500 X114.048 Y71.921
G1 F1350 X111.921 Y74.048 E0.17508
G0 F7500 X112.628 Y74.048
G1 F1350 X114.048 Y72.628 E0.11689
G0 F7500 X114.048 Y73.335
G1 F1350 X113.335 Y74.048 E0.05869
;MESH:NONMESH
G0 F300 Z0.8
G0 F7500 X105.08 Y65.08
G0 X104.75 Y64.75
;TIME_ELAPSED:54.298570
;LAYER:2
;note -- min layer time used
M106 S59.5
;TYPE:WALL-INNER
;MESH:BodyBox.stl
G1 F796.2 X104.75 Y75.25 E0.61115
G1 X115.25 Y75.25 E0.61115
G1 X115.25 Y64.75 E0.61115
G1 X104.75 Y64.75 E0.61115
G0 F9000 X104.25 Y64.25
;TYPE:WALL-OUTER
G1 F796.2 X104.25 Y75.75 E0.66936
G1 X115.75 Y75.75 E0.66936
G1 X115.75 Y64.25 E0.66936
G1 X104.25 Y64.25 E0.66936
G1 F1200 E-2
G0 F9000 X104.58 Y64.58
G0 X105.11 Y74.89
G0 X105.1 Y74.9
;TYPE:FILL
G1 F1200 E2
G1 F796.2 X107.828 Y74.9 E0.15878
G1 X105.1 Y72.172 E0.22455
G1 X105.1 Y65.1 E0.41163
G1 X114.9 Y74.9 E0.80668
G1 X114.9 Y67.829 E0.41157
G1 X112.171 Y65.1 E0.22464
G1 X114.9 Y65.1 E0.15884
G0 F9000 X114.49 Y65.51
;MESH:NONMESH
G0 F300 Z1.08
G0 F9000 X105.25 Y65.25
;TIME_ELAPSED:65.178233
;LAYER:3
;note -- min layer time used
M106 S89.2
;TYPE:WALL-INNER
;MESH:BodyBox.stl
G1 F963.5 X105.25 Y74.75 E0.55295
G1 X114.75 Y74.75 E0.55295
G1 X114.75 Y65.25 E0.55295
G1 X105.25 Y65.25 E0.55295
G0 F9000 X104.75 Y64.75
G1 F963.5 X104.75 Y75.25 E0.61115
G1 X115.25 Y75.25 E0.61115
G1 X115.25 Y64.75 E0.61115
G1 X104.75 Y64.75 E0.61115
G0 F9000 X104.25 Y64.25
;TYPE:WALL-OUTER
G1 F963.5 X104.25 Y75.75 E0.66936
G1 X115.75 Y75.75 E0.66936
G1 X115.75 Y64.25 E0.66936
G1 X104.25 Y64.25 E0.66936
G1 F1200 E-2
G0 F9000 X104.58 Y64.58
G0 X107.329 Y65.6
;TYPE:FILL
G1 F1200 E2
G1 F963.5 X105.6 Y67.329 E0.14232
G1 X105.6 Y74.4 E0.41157
G1 X114.4 Y65.6 E0.72437
G1 X114.4 Y72.671 E0.41157
G1 X112.67 Y74.4 E0.14236
;MESH:NONMESH
G0 F300 Z1.36
G0 F9000 X105.08 Y65.08
G0 X104.75 Y64.75
;TIME_ELAPSED:76.130916
;LAYER:4
;note -- min layer time used
;TYPE:WALL-INNER
;MESH:BodyBox.stl
G1 F796.1 X104.75 Y75.25 E0.61115
G1 X115.25 Y75.25 E0.61115
G1 X115.25 Y64.75 E0.61115
G1 X104.75 Y64.75 E0.61115
G0 F9000 X104.25 Y64.25
;TYPE:WALL-OUTER
G1 F796.1 X104.25 Y75.75 E0.66936
G1 X115.75 Y75.75 E0.66936
G1 X115.75 Y64.25 E0.66936
G1 X104.25 Y64.25 E0.66936
G1 F1200 E-2
G0 F9000 X104.58 Y64.58
G0 X105.11 Y74.89
G0 X105.1 Y74.9
;TYPE:FILL
G1 F1200 E2
G1 F796.1 X107.828 Y74.9 E0.15878
G1 X105.1 Y72.172 E0.22455
G1 X105.1 Y65.1 E0.41163
G1 X114.9 Y74.9 E0.80668
G1 X114.9 Y67.829 E0.41157
G1 X112.171 Y65.1 E0.22464
G1 X114.9 Y65.1 E0.15884
G0 F9000 X114.49 Y65.51
;MESH:NONMESH
G0 F300 Z1.64
G0 F9000 X105.25 Y65.25
;TIME_ELAPSED:87.011686
;LAYER:5
;note -- min layer time used
;TYPE:WALL-INNER
;MESH:BodyBox.stl
G1 F963.5 X105.25 Y74.75 E0.55295
G1 X114.75 Y74.75 E0.55295
G1 X114.75 Y65.25 E0.55295
G1 X105.25 Y65.25 E0.55295
G0 F9000 X104.75 Y64.75
G1 F963.5 X104.75 Y75.25 E0.61115
G1 X115.25 Y75.25 E0.61115
G1 X115.25 Y64.75 E0.61115
G1 X104.75 Y64.75 E0.61115
G0 F9000 X104.25 Y64.25
;TYPE:WALL-OUTER
G1 F963.5 X104.25 Y75.75 E0.66936
G1 X115.75 Y75.75 E0.66936
G1 X115.75 Y64.25 E0.66936
G1 X104.25 Y64.25 E0.66936
G1 F1200 E-2
G0 F9000 X104.58 Y64.58
G0 X107.329 Y65.6
;TYPE:FILL
G1 F1200 E2
G1 F963.5 X105.6 Y67.329 E0.14232
G1 X105.6 Y74.4 E0.41157
G1 X114.4 Y65.6 E0.72437
G1 X114.4 Y72.671 E0.41157
G1 X112.67 Y74.4 E0.14236
;MESH:NONMESH
G0 F300 Z1.92
G0 F9000 X105.08 Y65.08
G0 X104.75 Y64.75
;TIME_ELAPSED:97.964369
;LAYER:6
;note -- min layer time used
;TYPE:WALL-INNER
;MESH:BodyBox.stl
G1 F796.1 X104.75 Y75.25 E0.61115
G1 X115.25 Y75.25 E0.61115
G1 X115.25 Y64.75 E0.61115
G1 X104.75 Y64.75 E0.61115
G0 F9000 X104.25 Y64.25
;TYPE:WALL-OUTER
G1 F796.1 X104.25 Y75.75 E0.66936
G1 X115.75 Y75.75 E0.66936
G1 X115.75 Y64.25 E0.66936
G1 X104.25 Y64.25 E0.66936
G1 F1200 E-2
G0 F9000 X104.58 Y64.58
G0 X105.11 Y74.89
G0 X105.1 Y74.9
;TYPE:FILL
G1 F1200 E2
G1 F796.1 X107.828 Y74.9 E0.15878
G1 X105.1 Y72.172 E0.22455
G1 X105.1 Y65.1 E0.41163
G1 X114.9 Y74.9 E0.80668
G1 X114.9 Y67.829 E0.41157
G1 X112.171 Y65.1 E0.22464
G1 X114.9 Y65.1 E0.15884
G0 F9000 X114.49 Y65.51
;MESH:NONMESH
G0 F300 Z2.2
G0 F9000 X105.25 Y65.25
;TIME_ELAPSED:108.845139
;LAYER:7
;note -- min layer time used
;TYPE:WALL-INNER
;MESH:BodyBox.stl
G1 F963.5 X105.25 Y74.75 E0.55295
G1 X114.75 Y74.75 E0.55295
G1 X114.75 Y65.25 E0.55295
G1 X105.25 Y65.25 E0.55295
G0 F9000 X104.75 Y64.75
G1 F963.5 X104.75 Y75.25 E0.61115
G1 X115.25 Y75.25 E0.61115
G1 X115.25 Y64.75 E0.61115
G1 X104.75 Y64.75 E0.61115
G0 F9000 X104.25 Y64.25
;TYPE:WALL-OUTER
G1 F963.5 X104.25 Y75.75 E0.66936
G1 X115.75 Y75.75 E0.66936
G1 X115.75 Y64.25 E0.66936
G1 X104.25 Y64.25 E0.66936
G1 F1200 E-2
G0 F9000 X104.58 Y64.58
G0 X107.329 Y65.6
;TYPE:FILL
G1 F1200 E2
G1 F963.5 X105.6 Y67.329 E0.14232
G1 X105.6 Y74.4 E0.41157
G1 X114.4 Y65.6 E0.72437
G1 X114.4 Y72.671 E0.41157
G1 X112.67 Y74.4 E0.14236
;MESH:NONMESH
G0 F300 Z2.48
G0 F9000 X105.08 Y65.08
G0 X104.75 Y64.75
;TIME_ELAPSED:119.797822
;LAYER:8
;note -- min layer time used
;TYPE:WALL-INNER
;MESH:BodyBox.stl
G1 F796.1 X104.75 Y75.25 E0.61115
G1 X115.25 Y75.25 E0.61115
G1 X115.25 Y64.75 E0.61115
G1 X104.75 Y64.75 E0.61115
G0 F9000 X104.25 Y64.25
;TYPE:WALL-OUTER
G1 F796.1 X104.25 Y75.75 E0.66936
G1 X115.75 Y75.75 E0.66936
G1 X115.75 Y64.25 E0.66936
G1 X104.25 Y64.25 E0.66936
G1 F1200 E-2
G0 F9000 X104.58 Y64.58
G0 X105.11 Y74.89
G0 X105.1 Y74.9
;TYPE:FILL
G1 F1200 E2
G1 F796.1 X107.828 Y74.9 E0.15878
G1 X105.1 Y72.172 E0.22455
G1 X105.1 Y65.1 E0.41163
G1 X114.9 Y74.9 E0.80668
G1 X114.9 Y67.829 E0.41157
G1 X112.171 Y65.1 E0.22464
G1 X114.9 Y65.1 E0.15884
G0 F9000 X114.49 Y65.51
;MESH:NONMESH
G0 F300 Z2.76
G0 F9000 X105.25 Y65.25
;TIME_ELAPSED:130.678592
;LAYER:9
;note -- min layer time used
;TYPE:WALL-INNER
;MESH:BodyBox.stl
G1 F963.5 X105.25 Y74.75 E0.55295
G1 X114.75 Y74.75 E0.55295
G1 X114.75 Y65.25 E0.55295
G1 X105.25 Y65.25 E0.55295
G0 F9000 X104.75 Y64.75
G1 F963.5 X104.75 Y75.25 E0.61115
G1 X115.25 Y75.25 E0.61115
G1 X115.25 Y64.75 E0.61115
G1 X104.75 Y64.75 E0.61115
G0 F9000 X104.25 Y64.25
;TYPE:WALL-OUTER
G1 F963.5 X104.25 Y75.75 E0.66936
G1 X115.75 Y75.75 E0.66936
G1 X115.75 Y64.25 E0.66936
G1 X104.25 Y64.25 E0.66936
G1 F1200 E-2
G0 F9000 X104.58 Y64.58
G0 X107.329 Y65.6
;TYPE:FILL
G1 F1200 E2
G1 F963.5 X105.6 Y67.329 E0.14232
G1 X105.6 Y74.4 E0.41157
G1 X114.4 Y65.6 E0.72437
G1 X114.4 Y72.671 E0.41157
G1 X112.67 Y74.4 E0.14236
;MESH:NONMESH
G0 F300 Z3.04
G0 F9000 X105.08 Y65.08
G0 X104.75 Y64.75
;TIME_ELAPSED:141.631275
;LAYER:10
;note -- min layer time used
;TYPE:WALL-INNER
;MESH:BodyBox.stl
G1 F796.1 X104.75 Y75.25 E0.61115
G1 X115.25 Y75.25 E0.61115
G1 X115.25 Y64.75 E0.61115
G1 X104.75 Y64.75 E0.61115
G0 F9000 X104.25 Y64.25
;TYPE:WALL-OUTER
G1 F796.1 X104.25 Y75.75 E0.66936
G1 X115.75 Y75.75 E0.66936
G1 X115.75 Y64.25 E0.66936
G1 X104.25 Y64.25 E0.66936
G1 F1200 E-2
G0 F9000 X104.58 Y64.58
G0 X105.11 Y74.89
G0 X105.1 Y74.9
;TYPE:FILL
G1 F1200 E2
G1 F796.1 X107.828 Y74.9 E0.15878
G1 X105.1 Y72.172 E0.22455
G1 X105.1 Y65.1 E0.41163
G1 X114.9 Y74.9 E0.80668
G1 X114.9 Y67.829 E0.41157
G1 X112.171 Y65.1 E0.22464
G1 X114.9 Y65.1 E0.15884
G0 F9000 X114.49 Y65.51
;MESH:NONMESH
G0 F300 Z3.32
G0 F9000 X105.25 Y65.25
;TIME_ELAPSED:152.512045
;LAYER:11
;TYPE:WALL-INNER
;MESH:BodyBox.stl
G1 F1500 X105.25 Y74.75 E0.55295
G1 X114.75 Y74.75 E0.55295
G1 X114.75 Y65.25 E0.55295
G1 X105.25 Y65.25 E0.55295
G0 F9000 X104.75 Y64.75
G1 F1500 X104.75 Y75.25 E0.61115
G1 X115.25 Y75.25 E0.61115
G1 X115.25 Y64.75 E0.61115
G1 X104.75 Y64.75 E0.61115
G0 F9000 X104.25 Y64.25
;TYPE:WALL-OUTER
G1 F1800 X104.25 Y75.75 E0.66936
G1 X115.75 Y75.75 E0.66936
G1 X115.75 Y64.25 E0.66936
G1 X104.25 Y64.25 E0.66936
G1 F1200 E-2
G0 F9000 X104.58 Y64.58
G0 X105.6 Y65.914
M106 S191.2
;TYPE:FILL
G1 F1200 E2
G1 F750 X105.915 Y65.6 E0.01553
G0 F9000 X106.622 Y65.6
G1 F750 X105.6 Y66.621 E0.05045
G0 F9000 X105.6 Y67.329
G1 F750 X107.329 Y65.6 E0.08539
G0 F9000 X108.036 Y65.6
G1 F750 X105.6 Y68.036 E0.12031
G0 F9000 X105.6 Y68.743
G1 F750 X108.743 Y65.6 E0.15523
G0 F9000 X109.45 Y65.6
G1 F750 X105.6 Y69.45 E0.19015
G0 F9000 X105.6 Y70.157
G1 F750 X110.157 Y65.6 E0.22506
G0 F9000 X110.864 Y65.6
G1 F750 X105.6 Y70.864 E0.25998
G0 F9000 X105.6 Y71.571
G1 F750 X111.572 Y65.6 E0.29493
G0 F9000 X112.279 Y65.6
G1 F750 X105.6 Y72.278 E0.32984
G0 F9000 X105.6 Y72.985
G1 F750 X112.986 Y65.6 E0.36476
G0 F9000 X113.693 Y65.6
G1 F750 X105.6 Y73.693 E0.3997
G0 F9000 X105.6 Y74.4
G1 F750 X114.4 Y65.6 E0.43462
G0 F9000 X114.4 Y66.307
G1 F750 X106.306 Y74.4 E0.39973
G0 F9000 X107.014 Y74.4
G1 F750 X114.4 Y67.014 E0.36479
G0 F9000 X114.4 Y67.721
G1 F750 X107.721 Y74.4 E0.32987
G0 F9000 X108.428 Y74.4
G1 F750 X114.4 Y68.428 E0.29495
G0 F9000 X114.4 Y69.135
G1 F750 X109.135 Y74.4 E0.26003
G0 F9000 X109.842 Y74.4
G1 F750 X114.4 Y69.842 E0.22511
G0 F9000 X114.4 Y70.549
G1 F750 X110.549 Y74.4 E0.1902
G0 F9000 X111.256 Y74.4
G1 F750 X114.4 Y71.257 E0.15525
G0 F9000 X114.4 Y71.964
G1 F750 X111.963 Y74.4 E0.12034
G0 F9000 X112.67 Y74.4
G1 F750 X114.4 Y72.671 E0.08542
G0 F9000 X114.4 Y73.378
G1 F750 X113.378 Y74.4 E0.05048
G0 F9000 X114.085 Y74.4
G1 F750 X114.4 Y74.085 E0.01556
;MESH:NONMESH
G0 F300 Z3.6
G0 F9000 X105.08 Y65.08
G0 X104.75 Y64.75
;TIME_ELAPSED:172.738387
;LAYER:12
M106 S89.2
;TYPE:WALL-INNER
;MESH:BodyBox.stl
G1 F1500 X104.75 Y75.25 E0.61115
G1 X115.25 Y75.25 E0.61115
G1 X115.25 Y64.75 E0.61115
G1 X104.75 Y64.75 E0.61115
G0 F9000 X104.25 Y64.25
;TYPE:WALL-OUTER
G1 F1800 X104.25 Y75.75 E0.66936
G1 X115.75 Y75.75 E0.66936
G1 X115.75 Y64.25 E0.66936
G1 X104.25 Y64.25 E0.66936
G0 F9000 X104.58 Y64.58
G0 X105.198 Y65.198
;TYPE:SKIN
G1 F1500 X114.798 Y65.198 E0.55877
G1 X114.798 Y74.798 E0.55877
G1 X105.198 Y74.798 E0.55877
G1 X105.198 Y65.198 E0.55877
G0 F9000 X114.548 Y65.757
G1 F1500 X114.239 Y65.448 E0.02544
G0 F9000 X113.532 Y65.448
G1 F1500 X114.548 Y66.465 E0.08367
G0 F9000 X114.548 Y67.172
G1 F1500 X112.825 Y65.448 E0.14187
G0 F9000 X112.117 Y65.448
G1 F1500 X114.548 Y67.879 E0.20011
G0 F9000 X114.548 Y68.586
G1 F1500 X111.41 Y65.448 E0.2583
G0 F9000 X110.703 Y65.448
G1 F1500 X114.548 Y69.293 E0.3165
G0 F9000 X114.548 Y70
G1 F1500 X109.996 Y65.448 E0.3747
G0 F9000 X109.289 Y65.448
G1 F1500 X114.548 Y70.707 E0.43289
G0 F9000 X114.548 Y71.414
G1 F1500 X108.582 Y65.448 E0.49109
G0 F9000 X107.875 Y65.448
G1 F1500 X114.548 Y72.121 E0.54929
G0 F9000 X114.548 Y72.828
G1 F1500 X107.168 Y65.448 E0.60748
G0 F9000 X106.461 Y65.448
G1 F1500 X114.548 Y73.536 E0.66572
G0 F9000 X114.548 Y74.243
G1 F1500 X105.753 Y65.448 E0.72396
G0 F9000 X105.448 Y65.85
G1 F1500 X114.145 Y74.547 E0.71589
G0 F9000 X113.438 Y74.547
G1 F1500 X105.448 Y66.557 E0.65769
G0 F9000 X105.448 Y67.264
G1 F1500 X112.731 Y74.547 E0.5995
G0 F9000 X112.024 Y74.547
G1 F1500 X105.448 Y67.971 E0.5413
G0 F9000 X105.448 Y68.678
G1 F1500 X111.317 Y74.547 E0.4831
G0 F9000 X110.61 Y74.547
G1 F1500 X105.448 Y69.386 E0.42487
G0 F9000 X105.448 Y70.093
G1 F1500 X109.903 Y74.547 E0.36667
G0 F9000 X109.196 Y74.547
G1 F1500 X105.448 Y70.8 E0.30847
G0 F9000 X105.448 Y71.507
G1 F1500 X108.489 Y74.547 E0.25028
G0 F9000 X107.781 Y74.547
G1 F1500 X105.448 Y72.214 E0.19204
G0 F9000 X105.448 Y72.921
G1 F1500 X107.074 Y74.547 E0.13384
G0 F9000 X106.367 Y74.547
G1 F1500 X105.448 Y73.628 E0.07565
G0 F9000 X105.448 Y74.335
G1 F1500 X105.66 Y74.547 E0.01745
G0 F9000 X105.66 Y74.49
;MESH:NONMESH
G0 F300 Z3.88
G0 F9000 X105.25 Y65.25
;TIME_ELAPSED:187.628980
;LAYER:13
;TYPE:WALL-INNER
;MESH:BodyBox.stl
G1 F1500 X105.25 Y74.75 E0.55295
G1 X114.75 Y74.75 E0.55295
G1 X114.75 Y65.25 E0.55295
G1 X105.25 Y65.25 E0.55295
G0 F9000 X104.75 Y64.75
G1 F1500 X104.75 Y75.25 E0.61115
G1 X115.25 Y75.25 E0.61115
G1 X115.25 Y64.75 E0.61115
G1 X104.75 Y64.75 E0.61115
G0 F9000 X104.25 Y64.25
;TYPE:WALL-OUTER
G1 F1800 X104.25 Y75.75 E0.66936
G1 X115.75 Y75.75 E0.66936
G1 X115.75 Y64.25 E0.66936
G1 X104.25 Y64.25 E0.66936
G1 F1200 E-2
G0 F9000 X104.58 Y64.58
G0 X105.698 Y65.698
;TYPE:SKIN
G1 F1200 E2
G1 F1500 X114.298 Y65.698 E0.50057
G1 X114.298 Y74.298 E0.50057
G1 X105.698 Y74.298 E0.50057
G1 X105.698 Y65.698 E0.50057
G0 F9000 X105.948 Y66.586
G1 F1500 X106.586 Y65.948 E0.05252
G0 F9000 X107.294 Y65.948
G1 F1500 X105.948 Y67.293 E0.11075
G0 F9000 X105.948 Y68
G1 F1500 X108.001 Y65.948 E0.16895
G0 F9000 X108.708 Y65.948
G1 F1500 X105.948 Y68.707 E0.22715
G0 F9000 X105.948 Y69.415
G1 F1500 X109.415 Y65.948 E0.28538
G0 F9000 X110.122 Y65.948
G1 F1500 X105.948 Y70.122 E0.34358
G0 F9000 X105.948 Y70.829
G1 F1500 X110.829 Y65.948 E0.40178
G0 F9000 X111.536 Y65.948
G1 F1500 X105.948 Y71.536 E0.45997
G0 F9000 X105.948 Y72.243
G1 F1500 X112.243 Y65.948 E0.51817
G0 F9000 X112.95 Y65.948
G1 F1500 X105.948 Y72.95 E0.57637
G0 F9000 X105.948 Y73.657
G1 F1500 X113.658 Y65.948 E0.6346
G0 F9000 X114.048 Y66.264
G1 F1500 X106.264 Y74.048 E0.64074
G0 F9000 X106.971 Y74.048
G1 F1500 X114.048 Y66.971 E0.58254
G0 F9000 X114.048 Y67.679
G1 F1500 X107.678 Y74.048 E0.5243
G0 F9000 X108.385 Y74.048
G1 F1500 X114.048 Y68.386 E0.46611
G0 F9000 X114.048 Y69.093
G1 F1500 X109.092 Y74.048 E0.40791
G0 F9000 X109.8 Y74.048
G1 F1500 X114.048 Y69.8 E0.34967
G0 F9000 X114.048 Y70.507
G1 F1500 X110.507 Y74.048 E0.29148
G0 F9000 X111.214 Y74.048
G1 F1500 X114.048 Y71.214 E0.23328
G0 F9000 X114.048 Y71.921
G1 F1500 X111.921 Y74.048 E0.17508
G0 F9000 X112.628 Y74.048
G1 F1500 X114.048 Y72.628 E0.11689
G0 F9000 X114.048 Y73.335
G1 F1500 X113.335 Y74.048 E0.05869
;TIME_ELAPSED:202.056502
;LAYER:1
;TYPE:CUSTOM
;HYBRID_SEQUENCE:SAFE_TRANSITION
G90 ; hybrid: absolute positioning
M83 ; hybrid: restore relative extrusion after G90
G0 Z14.000 ; hybrid: clear completed object
G0 X101.186 Y139.584 ; hybrid: move above next object
G0 Z0.440 ; hybrid: descend to target layer

M140 S75
M106 S29.8
G0 F7500 Z0.72
;TYPE:SKIRT
G1 F300 Z0.52
G1 F1200 E2
G1 X101.752 Y139.269 E0.0377
G1 X102.353 Y139.027 E0.03771
G1 X102.979 Y138.861 E0.0377
G1 X103.862 Y138.761 E0.05172
G1 X104.33 Y138.75 E0.02725
G1 X115.293 Y138.75 E0.6381
G1 X116.066 Y138.761 E0.045
G1 X116.712 Y138.81 E0.03771
G1 X117.347 Y138.938 E0.0377
G1 X117.961 Y139.144 E0.0377
G1 X118.546 Y139.423 E0.03772
G1 X119.091 Y139.773 E0.0377
G1 X119.589 Y140.187 E0.03769
G1 X120.033 Y140.659 E0.03772
G1 X120.414 Y141.182 E0.03766
G1 X120.729 Y141.749 E0.03775
G1 X120.971 Y142.349 E0.03766
G1 X121.138 Y142.975 E0.03771
G1 X121.239 Y143.862 E0.05196
G1 X121.25 Y144.33 E0.02725
G1 X121.25 Y155.336 E0.64061
G1 X121.24 Y156.063 E0.04232
G1 X121.191 Y156.709 E0.03771
G1 X121.063 Y157.344 E0.0377
G1 X120.857 Y157.959 E0.03775
G1 X120.578 Y158.543 E0.03767
G1 X120.229 Y159.089 E0.03772
G1 X119.815 Y159.587 E0.03769
G1 X119.343 Y160.031 E0.03772
G1 X118.82 Y160.413 E0.0377
G1 X118.254 Y160.728 E0.0377
G1 X117.654 Y160.97 E0.03766
G1 X117.028 Y161.137 E0.03771
G1 X116.138 Y161.239 E0.05214
G1 X115.67 Y161.25 E0.02725
G1 X104.632 Y161.249 E0.64247
G1 X103.934 Y161.239 E0.04063
G1 X103.288 Y161.19 E0.03771
G1 X102.653 Y161.062 E0.0377
G1 X102.039 Y160.856 E0.0377
G1 X101.454 Y160.577 E0.03772
G1 X100.909 Y160.227 E0.0377
G1 X100.411 Y159.813 E0.03769
G1 X99.967 Y159.341 E0.03772
G1 X99.586 Y158.818 E0.03766
G1 X99.271 Y158.251 E0.03775
G1 X99.029 Y157.651 E0.03766
G1 X98.862 Y157.025 E0.03771
G1 X98.761 Y156.132 E0.05231
G1 X98.75 Y155.658 E0.0276
G1 X98.751 Y144.595 E0.64392
G1 X98.761 Y143.93 E0.03871
G1 X98.81 Y143.284 E0.03771
G1 X98.939 Y142.649 E0.03772
G1 X99.145 Y142.035 E0.0377
G1 X99.425 Y141.451 E0.0377
G1 X99.775 Y140.906 E0.0377
G1 X100.189 Y140.408 E0.03769
G1 X100.662 Y139.965 E0.03772
G1 X101.186 Y139.584 E0.03771
G1 F1200 E-2
G1 F300 Z0.72
;MESH:BodyBox.stl(1)
G0 F7500 X105.25 Y145.25
;TYPE:WALL-INNER
G1 F300 Z0.52
G1 F1200 E2
G1 F1350 X105.25 Y154.75 E0.55295
G1 X114.75 Y154.75 E0.55295
G1 X114.75 Y145.25 E0.55295
G1 X105.25 Y145.25 E0.55295
G0 F7500 X104.75 Y144.75
G1 F1350 X104.75 Y155.25 E0.61115
G1 X115.25 Y155.25 E0.61115
G1 X115.25 Y144.75 E0.61115
G1 X104.75 Y144.75 E0.61115
G0 F7500 X104.25 Y144.25
;TYPE:WALL-OUTER
G1 F1500 X104.25 Y155.75 E0.66936
G1 X115.75 Y155.75 E0.66936
G1 X115.75 Y144.25 E0.66936
G1 X104.25 Y144.25 E0.66936
G1 F1200 E-2
G0 F7500 X104.58 Y144.58
G0 X105.698 Y145.698
;TYPE:SKIN
G1 F1200 E2
G1 F1350 X114.298 Y145.698 E0.50057
G1 X114.298 Y154.298 E0.50057
G1 X105.698 Y154.298 E0.50057
G1 X105.698 Y145.698 E0.50057
G0 F7500 X105.948 Y146.489
G1 F1350 X106.49 Y145.948 E0.04457
G0 F7500 X107.197 Y145.948
G1 F1350 X105.948 Y147.196 E0.10277
G0 F7500 X105.948 Y147.903
G1 F1350 X107.904 Y145.948 E0.16097
G0 F7500 X108.611 Y145.948
G1 F1350 X105.948 Y148.611 E0.2192
G0 F7500 X105.948 Y149.318
G1 F1350 X109.318 Y145.948 E0.2774
G0 F7500 X110.025 Y145.948
G1 F1350 X105.948 Y150.025 E0.3356
G0 F7500 X105.948 Y150.732
G1 F1350 X110.732 Y145.948 E0.39379
G0 F7500 X111.439 Y145.948
G1 F1350 X105.948 Y151.439 E0.45199
G0 F7500 X105.948 Y152.146
G1 F1350 X112.146 Y145.948 E0.51019
G0 F7500 X112.854 Y145.948
G1 F1350 X105.948 Y152.853 E0.56842
G0 F7500 X105.948 Y153.56
G1 F1350 X113.561 Y145.948 E0.62662
G0 F7500 X114.048 Y146.167
G1 F1350 X106.167 Y154.048 E0.64872
G0 F7500 X106.874 Y154.048
G1 F1350 X114.048 Y146.875 E0.59048
G0 F7500 X114.048 Y147.582
G1 F1350 X107.581 Y154.048 E0.53229
G0 F7500 X108.288 Y154.048
G1 F1350 X114.048 Y148.289 E0.47409
G0 F7500 X114.048 Y148.996
G1 F1350 X108.996 Y154.048 E0.41585
G0 F7500 X109.703 Y154.048
G1 F1350 X114.048 Y149.703 E0.35766
G0 F7500 X114.048 Y150.41
G1 F1350 X110.41 Y154.048 E0.29946
G0 F7500 X111.117 Y154.048
G1 F1350 X114.048 Y151.117 E0.24126
G0 F7500 X114.048 Y151.824
G1 F1350 X111.824 Y154.048 E0.18307
G0 F7500 X112.531 Y154.048
G1 F1350 X114.048 Y152.531 E0.12487
G0 F7500 X114.048 Y153.239
G1 F1350 X113.238 Y154.048 E0.06663
G0 F7500 X113.945 Y154.048
G1 F1350 X114.048 Y153.946 E0.00844
;MESH:NONMESH
G0 F300 Z0.8
G0 F7500 X105.08 Y145.08
G0 X104.75 Y144.75
;TIME_ELAPSED:252.061714
;LAYER:2
;note -- min layer time used
M106 S59.5
;TYPE:WALL-INNER
;MESH:BodyBox.stl(1)
G1 F797.8 X104.75 Y155.25 E0.61115
G1 X115.25 Y155.25 E0.61115
G1 X115.25 Y144.75 E0.61115
G1 X104.75 Y144.75 E0.61115
G0 F9000 X104.25 Y144.25
;TYPE:WALL-OUTER
G1 F797.8 X104.25 Y155.75 E0.66936
G1 X115.75 Y155.75 E0.66936
G1 X115.75 Y144.25 E0.66936
G1 X104.25 Y144.25 E0.66936
G1 F1200 E-2
G0 F9000 X104.58 Y144.58
G0 X105.11 Y152.171
G0 X105.1 Y152.171
;TYPE:FILL
G1 F1200 E2
G1 F797.8 X107.829 Y154.9 E0.22464
G0 F9000 X107.829 Y154.89
G0 X105.11 Y154.9
G0 X105.1 Y154.9
G1 F797.8 X114.9 Y154.9 E0.57041
G1 X105.1 Y145.1 E0.80668
G1 X114.9 Y145.1 E0.57041
G0 F9000 X114.9 Y145.11
G0 X114.89 Y147.828
G0 X114.9 Y147.828
G1 F797.8 X112.172 Y145.1 E0.22455
G0 F9000 X112.172 Y145.51
;MESH:NONMESH
G0 F300 Z1.08
G0 F9000 X105.25 Y145.25
;TIME_ELAPSED:263.053814
;LAYER:3
;note -- min layer time used
M106 S89.2
;TYPE:WALL-INNER
;MESH:BodyBox.stl(1)
G1 F962 X105.25 Y154.75 E0.55295
G1 X114.75 Y154.75 E0.55295
G1 X114.75 Y145.25 E0.55295
G1 X105.25 Y145.25 E0.55295
G0 F9000 X104.75 Y144.75
G1 F962 X104.75 Y155.25 E0.61115
G1 X115.25 Y155.25 E0.61115
G1 X115.25 Y144.75 E0.61115
G1 X104.75 Y144.75 E0.61115
G0 F9000 X104.25 Y144.25
;TYPE:WALL-OUTER
G1 F962 X104.25 Y155.75 E0.66936
G1 X115.75 Y155.75 E0.66936
G1 X115.75 Y144.25 E0.66936
G1 X104.25 Y144.25 E0.66936
G1 F1200 E-2
G0 F9000 X104.58 Y144.58
G0 X105.6 Y147.328
;TYPE:FILL
G1 F1200 E2
G1 F962 X107.328 Y145.6 E0.14224
G1 X114.399 Y145.6 E0.41157
G1 X105.6 Y154.4 E0.72433
G1 X112.67 Y154.4 E0.41151
G1 X114.4 Y152.67 E0.1424
;MESH:NONMESH
G0 F300 Z1.36
G0 F9000 X105.08 Y145.08
G0 X104.75 Y144.75
;TIME_ELAPSED:273.957419
;LAYER:4
;note -- min layer time used
;TYPE:WALL-INNER
;MESH:BodyBox.stl(1)
G1 F797.5 X104.75 Y155.25 E0.61115
G1 X115.25 Y155.25 E0.61115
G1 X115.25 Y144.75 E0.61115
G1 X104.75 Y144.75 E0.61115
G0 F9000 X104.25 Y144.25
;TYPE:WALL-OUTER
G1 F797.5 X104.25 Y155.75 E0.66936
G1 X115.75 Y155.75 E0.66936
G1 X115.75 Y144.25 E0.66936
G1 X104.25 Y144.25 E0.66936
G1 F1200 E-2
G0 F9000 X104.58 Y144.58
G0 X105.11 Y152.171
G0 X105.1 Y152.171
;TYPE:FILL
G1 F1200 E2
G1 F797.5 X107.829 Y154.9 E0.22464
G0 F9000 X107.829 Y154.89
G0 X105.11 Y154.9
G0 X105.1 Y154.9
G1 F797.5 X114.9 Y154.9 E0.57041
G1 X105.1 Y145.1 E0.80668
G1 X114.9 Y145.1 E0.57041
G0 F9000 X114.9 Y145.11
G0 X114.89 Y147.828
G0 X114.9 Y147.828
G1 F797.5 X112.172 Y145.1 E0.22455
G0 F9000 X112.172 Y145.51
;MESH:NONMESH
G0 F300 Z1.64
G0 F9000 X105.25 Y145.25
;TIME_ELAPSED:284.953378
;LAYER:5
;note -- min layer time used
;TYPE:WALL-INNER
;MESH:BodyBox.stl(1)
G1 F962 X105.25 Y154.75 E0.55295
G1 X114.75 Y154.75 E0.55295
G1 X114.75 Y145.25 E0.55295
G1 X105.25 Y145.25 E0.55295
G0 F9000 X104.75 Y144.75
G1 F962 X104.75 Y155.25 E0.61115
G1 X115.25 Y155.25 E0.61115
G1 X115.25 Y144.75 E0.61115
G1 X104.75 Y144.75 E0.61115
G0 F9000 X104.25 Y144.25
;TYPE:WALL-OUTER
G1 F962 X104.25 Y155.75 E0.66936
G1 X115.75 Y155.75 E0.66936
G1 X115.75 Y144.25 E0.66936
G1 X104.25 Y144.25 E0.66936
G1 F1200 E-2
G0 F9000 X104.58 Y144.58
G0 X105.6 Y147.328
;TYPE:FILL
G1 F1200 E2
G1 F962 X107.328 Y145.6 E0.14224
G1 X114.399 Y145.6 E0.41157
G1 X105.6 Y154.4 E0.72433
G1 X112.67 Y154.4 E0.41151
G1 X114.4 Y152.67 E0.1424
;MESH:NONMESH
G0 F300 Z1.92
G0 F9000 X105.08 Y145.08
G0 X104.75 Y144.75
;TIME_ELAPSED:295.856983
;LAYER:6
;note -- min layer time used
;TYPE:WALL-INNER
;MESH:BodyBox.stl(1)
G1 F797.5 X104.75 Y155.25 E0.61115
G1 X115.25 Y155.25 E0.61115
G1 X115.25 Y144.75 E0.61115
G1 X104.75 Y144.75 E0.61115
G0 F9000 X104.25 Y144.25
;TYPE:WALL-OUTER
G1 F797.5 X104.25 Y155.75 E0.66936
G1 X115.75 Y155.75 E0.66936
G1 X115.75 Y144.25 E0.66936
G1 X104.25 Y144.25 E0.66936
G1 F1200 E-2
G0 F9000 X104.58 Y144.58
G0 X105.11 Y152.171
G0 X105.1 Y152.171
;TYPE:FILL
G1 F1200 E2
G1 F797.5 X107.829 Y154.9 E0.22464
G0 F9000 X107.829 Y154.89
G0 X105.11 Y154.9
G0 X105.1 Y154.9
G1 F797.5 X114.9 Y154.9 E0.57041
G1 X105.1 Y145.1 E0.80668
G1 X114.9 Y145.1 E0.57041
G0 F9000 X114.9 Y145.11
G0 X114.89 Y147.828
G0 X114.9 Y147.828
G1 F797.5 X112.172 Y145.1 E0.22455
G0 F9000 X112.172 Y145.51
;MESH:NONMESH
G0 F300 Z2.2
G0 F9000 X105.25 Y145.25
;TIME_ELAPSED:306.852942
;LAYER:7
;note -- min layer time used
;TYPE:WALL-INNER
;MESH:BodyBox.stl(1)
G1 F962 X105.25 Y154.75 E0.55295
G1 X114.75 Y154.75 E0.55295
G1 X114.75 Y145.25 E0.55295
G1 X105.25 Y145.25 E0.55295
G0 F9000 X104.75 Y144.75
G1 F962 X104.75 Y155.25 E0.61115
G1 X115.25 Y155.25 E0.61115
G1 X115.25 Y144.75 E0.61115
G1 X104.75 Y144.75 E0.61115
G0 F9000 X104.25 Y144.25
;TYPE:WALL-OUTER
G1 F962 X104.25 Y155.75 E0.66936
G1 X115.75 Y155.75 E0.66936
G1 X115.75 Y144.25 E0.66936
G1 X104.25 Y144.25 E0.66936
G1 F1200 E-2
G0 F9000 X104.58 Y144.58
G0 X105.6 Y147.328
;TYPE:FILL
G1 F1200 E2
G1 F962 X107.328 Y145.6 E0.14224
G1 X114.399 Y145.6 E0.41157
G1 X105.6 Y154.4 E0.72433
G1 X112.67 Y154.4 E0.41151
G1 X114.4 Y152.67 E0.1424
;MESH:NONMESH
G0 F300 Z2.48
G0 F9000 X105.08 Y145.08
G0 X104.75 Y144.75
;TIME_ELAPSED:317.756547
;LAYER:8
;note -- min layer time used
;TYPE:WALL-INNER
;MESH:BodyBox.stl(1)
G1 F797.5 X104.75 Y155.25 E0.61115
G1 X115.25 Y155.25 E0.61115
G1 X115.25 Y144.75 E0.61115
G1 X104.75 Y144.75 E0.61115
G0 F9000 X104.25 Y144.25
;TYPE:WALL-OUTER
G1 F797.5 X104.25 Y155.75 E0.66936
G1 X115.75 Y155.75 E0.66936
G1 X115.75 Y144.25 E0.66936
G1 X104.25 Y144.25 E0.66936
G1 F1200 E-2
G0 F9000 X104.58 Y144.58
G0 X105.11 Y152.171
G0 X105.1 Y152.171
;TYPE:FILL
G1 F1200 E2
G1 F797.5 X107.829 Y154.9 E0.22464
G0 F9000 X107.829 Y154.89
G0 X105.11 Y154.9
G0 X105.1 Y154.9
G1 F797.5 X114.9 Y154.9 E0.57041
G1 X105.1 Y145.1 E0.80668
G1 X114.9 Y145.1 E0.57041
G0 F9000 X114.9 Y145.11
G0 X114.89 Y147.828
G0 X114.9 Y147.828
G1 F797.5 X112.172 Y145.1 E0.22455
G0 F9000 X112.172 Y145.51
;MESH:NONMESH
G0 F300 Z2.76
G0 F9000 X105.25 Y145.25
;TIME_ELAPSED:328.752506
;LAYER:9
;note -- min layer time used
;TYPE:WALL-INNER
;MESH:BodyBox.stl(1)
G1 F962 X105.25 Y154.75 E0.55295
G1 X114.75 Y154.75 E0.55295
G1 X114.75 Y145.25 E0.55295
G1 X105.25 Y145.25 E0.55295
G0 F9000 X104.75 Y144.75
G1 F962 X104.75 Y155.25 E0.61115
G1 X115.25 Y155.25 E0.61115
G1 X115.25 Y144.75 E0.61115
G1 X104.75 Y144.75 E0.61115
G0 F9000 X104.25 Y144.25
;TYPE:WALL-OUTER
G1 F962 X104.25 Y155.75 E0.66936
G1 X115.75 Y155.75 E0.66936
G1 X115.75 Y144.25 E0.66936
G1 X104.25 Y144.25 E0.66936
G1 F1200 E-2
G0 F9000 X104.58 Y144.58
G0 X105.6 Y147.328
;TYPE:FILL
G1 F1200 E2
G1 F962 X107.328 Y145.6 E0.14224
G1 X114.399 Y145.6 E0.41157
G1 X105.6 Y154.4 E0.72433
G1 X112.67 Y154.4 E0.41151
G1 X114.4 Y152.67 E0.1424
;MESH:NONMESH
G0 F300 Z3.04
G0 F9000 X105.08 Y145.08
G0 X104.75 Y144.75
;TIME_ELAPSED:339.656111
;LAYER:10
;note -- min layer time used
;TYPE:WALL-INNER
;MESH:BodyBox.stl(1)
G1 F797.5 X104.75 Y155.25 E0.61115
G1 X115.25 Y155.25 E0.61115
G1 X115.25 Y144.75 E0.61115
G1 X104.75 Y144.75 E0.61115
G0 F9000 X104.25 Y144.25
;TYPE:WALL-OUTER
G1 F797.5 X104.25 Y155.75 E0.66936
G1 X115.75 Y155.75 E0.66936
G1 X115.75 Y144.25 E0.66936
G1 X104.25 Y144.25 E0.66936
G1 F1200 E-2
G0 F9000 X104.58 Y144.58
G0 X105.11 Y152.171
G0 X105.1 Y152.171
;TYPE:FILL
G1 F1200 E2
G1 F797.5 X107.829 Y154.9 E0.22464
G0 F9000 X107.829 Y154.89
G0 X105.11 Y154.9
G0 X105.1 Y154.9
G1 F797.5 X114.9 Y154.9 E0.57041
G1 X105.1 Y145.1 E0.80668
G1 X114.9 Y145.1 E0.57041
G0 F9000 X114.9 Y145.11
G0 X114.89 Y147.828
G0 X114.9 Y147.828
G1 F797.5 X112.172 Y145.1 E0.22455
G0 F9000 X112.172 Y145.51
;MESH:NONMESH
G0 F300 Z3.32
G0 F9000 X105.25 Y145.25
;TIME_ELAPSED:350.652070
;LAYER:11
;TYPE:WALL-INNER
;MESH:BodyBox.stl(1)
G1 F1500 X105.25 Y154.75 E0.55295
G1 X114.75 Y154.75 E0.55295
G1 X114.75 Y145.25 E0.55295
G1 X105.25 Y145.25 E0.55295
G0 F9000 X104.75 Y144.75
G1 F1500 X104.75 Y155.25 E0.61115
G1 X115.25 Y155.25 E0.61115
G1 X115.25 Y144.75 E0.61115
G1 X104.75 Y144.75 E0.61115
G0 F9000 X104.25 Y144.25
;TYPE:WALL-OUTER
G1 F1800 X104.25 Y155.75 E0.66936
G1 X115.75 Y155.75 E0.66936
G1 X115.75 Y144.25 E0.66936
G1 X104.25 Y144.25 E0.66936
G1 F1200 E-2
G0 F9000 X104.58 Y144.58
G0 X105.6 Y145.914
M106 S191.2
;TYPE:FILL
G1 F1200 E2
G1 F750 X105.914 Y145.6 E0.01551
G0 F9000 X106.621 Y145.6
G1 F750 X105.6 Y146.621 E0.05043
G0 F9000 X105.6 Y147.328
G1 F750 X107.328 Y145.6 E0.08534
G0 F9000 X108.035 Y145.6
G1 F750 X105.6 Y148.035 E0.12026
G0 F9000 X105.6 Y148.742
G1 F750 X108.742 Y145.6 E0.15518
G0 F9000 X109.45 Y145.6
G1 F750 X105.6 Y149.449 E0.19012
G0 F9000 X105.6 Y150.156
G1 F750 X110.157 Y145.6 E0.22504
G0 F9000 X110.864 Y145.6
G1 F750 X105.6 Y150.863 E0.25996
G0 F9000 X105.6 Y151.57
G1 F750 X111.571 Y145.6 E0.29488
G0 F9000 X112.278 Y145.6
G1 F750 X105.6 Y152.278 E0.32982
G0 F9000 X105.6 Y152.985
G1 F750 X112.985 Y145.6 E0.36474
G0 F9000 X113.692 Y145.6
G1 F750 X105.6 Y153.692 E0.39965
G0 F9000 X105.6 Y154.399
G1 F750 X114.399 Y145.6 E0.43457
G0 F9000 X114.4 Y146.306
G1 F750 X106.306 Y154.4 E0.39975
G0 F9000 X107.013 Y154.4
G1 F750 X114.4 Y147.013 E0.36483
G0 F9000 X114.4 Y147.72
G1 F750 X107.72 Y154.4 E0.32992
G0 F9000 X108.427 Y154.4
G1 F750 X114.4 Y148.427 E0.295
G0 F9000 X114.4 Y149.134
G1 F750 X109.134 Y154.4 E0.26008
G0 F9000 X109.841 Y154.4
G1 F750 X114.4 Y149.842 E0.22514
G0 F9000 X114.358 Y150.59
G1 F750 X110.548 Y154.4 E0.18817
G0 F9000 X111.255 Y154.4
G1 F750 X114.314 Y151.342 E0.15106
G0 F9000 X114.268 Y152.094
G1 F750 X111.963 Y154.4 E0.11387
G0 F9000 X112.67 Y154.4
G1 F750 X114.224 Y152.846 E0.07675
G0 F9000 X114.179 Y153.598
G1 F750 X113.377 Y154.4 E0.03961
;MESH:NONMESH
G0 F300 Z3.6
G0 F9000 X105.08 Y145.08
G0 X104.75 Y144.75
;TIME_ELAPSED:370.545491
;LAYER:12
M106 S89.2
;TYPE:WALL-INNER
;MESH:BodyBox.stl(1)
G1 F1500 X104.75 Y155.25 E0.61115
G1 X115.25 Y155.25 E0.61115
G1 X115.25 Y144.75 E0.61115
G1 X104.75 Y144.75 E0.61115
G0 F9000 X104.25 Y144.25
;TYPE:WALL-OUTER
G1 F1800 X104.25 Y155.75 E0.66936
G1 X115.75 Y155.75 E0.66936
G1 X115.75 Y144.25 E0.66936
G1 X104.25 Y144.25 E0.66936
G0 F9000 X104.58 Y144.58
G0 X105.198 Y145.198
;TYPE:SKIN
G1 F1500 X114.798 Y145.198 E0.55877
G1 X114.798 Y154.798 E0.55877
G1 X105.198 Y154.798 E0.55877
G1 X105.198 Y145.198 E0.55877
G0 F9000 X114.548 Y145.661
G1 F1500 X114.336 Y145.448 E0.01749
G0 F9000 X113.629 Y145.448
G1 F1500 X114.548 Y146.368 E0.07569
G0 F9000 X114.548 Y147.075
G1 F1500 X112.921 Y145.448 E0.13393
G0 F9000 X112.214 Y145.448
G1 F1500 X114.548 Y147.782 E0.19212
G0 F9000 X114.548 Y148.49
G1 F1500 X111.507 Y145.448 E0.25036
G0 F9000 X110.8 Y145.448
G1 F1500 X114.548 Y149.197 E0.30856
G0 F9000 X114.548 Y149.904
G1 F1500 X110.093 Y145.448 E0.36675
G0 F9000 X109.386 Y145.448
G1 F1500 X114.548 Y150.611 E0.42495
G0 F9000 X114.548 Y151.318
G1 F1500 X108.679 Y145.448 E0.48315
G0 F9000 X107.972 Y145.448
G1 F1500 X114.548 Y152.025 E0.54134
G0 F9000 X114.548 Y152.732
G1 F1500 X107.265 Y145.448 E0.59954
G0 F9000 X106.557 Y145.448
G1 F1500 X114.548 Y153.439 E0.65778
G0 F9000 X114.548 Y154.146
G1 F1500 X105.85 Y145.448 E0.71597
G0 F9000 X105.448 Y145.753
G1 F1500 X114.243 Y154.548 E0.72396
G0 F9000 X113.536 Y154.548
G1 F1500 X105.448 Y146.46 E0.66576
G0 F9000 X105.448 Y147.167
G1 F1500 X112.829 Y154.548 E0.60756
G0 F9000 X112.122 Y154.548
G1 F1500 X105.448 Y147.874 E0.54937
G0 F9000 X105.448 Y148.582
G1 F1500 X111.415 Y154.548 E0.49113
G0 F9000 X110.707 Y154.548
G1 F1500 X105.448 Y149.289 E0.43289
G0 F9000 X105.448 Y149.996
G1 F1500 X110 Y154.548 E0.3747
G0 F9000 X109.293 Y154.548
G1 F1500 X105.448 Y150.703 E0.3165
G0 F9000 X105.448 Y151.41
G1 F1500 X108.586 Y154.548 E0.2583
G0 F9000 X107.879 Y154.548
G1 F1500 X105.448 Y152.117 E0.20011
G0 F9000 X105.448 Y152.824
G1 F1500 X107.172 Y154.548 E0.14191
G0 F9000 X106.465 Y154.548
G1 F1500 X105.448 Y153.531 E0.08371
G0 F9000 X105.448 Y154.238
G1 F1500 X105.758 Y154.548 E0.02552
G0 F9000 X105.758 Y154.49
;MESH:NONMESH
G0 F300 Z3.88
G0 F9000 X105.25 Y145.25
;TIME_ELAPSED:385.227979
;LAYER:13
;TYPE:WALL-INNER
;MESH:BodyBox.stl(1)
G1 F1500 X105.25 Y154.75 E0.55295
G1 X114.75 Y154.75 E0.55295
G1 X114.75 Y145.25 E0.55295
G1 X105.25 Y145.25 E0.55295
G0 F9000 X104.75 Y144.75
G1 F1500 X104.75 Y155.25 E0.61115
G1 X115.25 Y155.25 E0.61115
G1 X115.25 Y144.75 E0.61115
G1 X104.75 Y144.75 E0.61115
G0 F9000 X104.25 Y144.25
;TYPE:WALL-OUTER
G1 F1800 X104.25 Y155.75 E0.66936
G1 X115.75 Y155.75 E0.66936
G1 X115.75 Y144.25 E0.66936
G1 X104.25 Y144.25 E0.66936
G1 F1200 E-2
G0 F9000 X104.58 Y144.58
G0 X105.698 Y145.698
;TYPE:SKIN
G1 F1200 E2
G1 F1500 X114.298 Y145.698 E0.50057
G1 X114.298 Y154.298 E0.50057
G1 X105.698 Y154.298 E0.50057
G1 X105.698 Y145.698 E0.50057
G0 F9000 X105.948 Y146.489
G1 F1500 X106.49 Y145.948 E0.04457
G0 F9000 X107.197 Y145.948
G1 F1500 X105.948 Y147.196 E0.10277
G0 F9000 X105.948 Y147.903
G1 F1500 X107.904 Y145.948 E0.16097
G0 F9000 X108.611 Y145.948
G1 F1500 X105.948 Y148.611 E0.2192
G0 F9000 X105.948 Y149.318
G1 F1500 X109.318 Y145.948 E0.2774
G0 F9000 X110.025 Y145.948
G1 F1500 X105.948 Y150.025 E0.3356
G0 F9000 X105.948 Y150.732
G1 F1500 X110.732 Y145.948 E0.39379
G0 F9000 X111.439 Y145.948
G1 F1500 X105.948 Y151.439 E0.45199
G0 F9000 X105.948 Y152.146
G1 F1500 X112.146 Y145.948 E0.51019
G0 F9000 X112.854 Y145.948
G1 F1500 X105.948 Y152.853 E0.56842
G0 F9000 X105.948 Y153.56
G1 F1500 X113.561 Y145.948 E0.62662
G0 F9000 X114.048 Y146.167
G1 F1500 X106.167 Y154.048 E0.64872
G0 F9000 X106.874 Y154.048
G1 F1500 X114.048 Y146.875 E0.59048
G0 F9000 X114.048 Y147.582
G1 F1500 X107.581 Y154.048 E0.53229
G0 F9000 X108.288 Y154.048
G1 F1500 X114.048 Y148.289 E0.47409
G0 F9000 X114.048 Y148.996
G1 F1500 X108.996 Y154.048 E0.41585
G0 F9000 X109.703 Y154.048
G1 F1500 X114.048 Y149.703 E0.35766
G0 F9000 X114.048 Y150.41
G1 F1500 X110.41 Y154.048 E0.29946
G0 F9000 X111.117 Y154.048
G1 F1500 X114.048 Y151.117 E0.24126
G0 F9000 X114.048 Y151.824
G1 F1500 X111.824 Y154.048 E0.18307
G0 F9000 X112.531 Y154.048
G1 F1500 X114.048 Y152.531 E0.12487
G0 F9000 X114.048 Y153.239
G1 F1500 X113.238 Y154.048 E0.06663
G0 F9000 X113.945 Y154.048
G1 F1500 X114.048 Y153.946 E0.00844
;TIME_ELAPSED:399.523995
;LAYER:1
;TYPE:CUSTOM
;HYBRID_SEQUENCE:SAFE_TRANSITION
G90 ; hybrid: absolute positioning
M83 ; hybrid: restore relative extrusion after G90
G0 Z14.000 ; hybrid: clear completed object
G0 X61.186 Y99.584 ; hybrid: move above next object
G0 Z0.440 ; hybrid: descend to target layer

M140 S75
M106 S29.8
G0 F7500 Z0.72
;TYPE:SKIRT
G1 F300 Z0.52
G1 F1200 E2
G1 X61.752 Y99.269 E0.0377
G1 X62.353 Y99.027 E0.03771
G1 X62.979 Y98.861 E0.0377
G1 X63.862 Y98.761 E0.05172
G1 X64.33 Y98.75 E0.02725
G1 X75.293 Y98.75 E0.6381
G1 X76.066 Y98.761 E0.045
G1 X76.712 Y98.81 E0.03771
G1 X77.347 Y98.938 E0.0377
G1 X77.961 Y99.144 E0.0377
G1 X78.546 Y99.423 E0.03772
G1 X79.091 Y99.773 E0.0377
G1 X79.589 Y100.187 E0.03769
G1 X80.033 Y100.659 E0.03772
G1 X80.414 Y101.182 E0.03766
G1 X80.729 Y101.749 E0.03775
G1 X80.971 Y102.349 E0.03766
G1 X81.138 Y102.975 E0.03771
G1 X81.239 Y103.862 E0.05196
G1 X81.25 Y104.33 E0.02725
G1 X81.25 Y115.336 E0.64061
G1 X81.24 Y116.063 E0.04232
G1 X81.191 Y116.709 E0.03771
G1 X81.063 Y117.344 E0.0377
G1 X80.857 Y117.959 E0.03775
G1 X80.578 Y118.543 E0.03767
G1 X80.229 Y119.089 E0.03772
G1 X79.815 Y119.587 E0.03769
G1 X79.343 Y120.031 E0.03772
G1 X78.82 Y120.413 E0.0377
G1 X78.254 Y120.728 E0.0377
G1 X77.654 Y120.97 E0.03766
G1 X77.028 Y121.137 E0.03771
G1 X76.138 Y121.239 E0.05214
G1 X75.67 Y121.25 E0.02725
G1 X64.632 Y121.249 E0.64247
G1 X63.934 Y121.239 E0.04063
G1 X63.288 Y121.19 E0.03771
G1 X62.653 Y121.062 E0.0377
G1 X62.039 Y120.856 E0.0377
G1 X61.454 Y120.577 E0.03772
G1 X60.909 Y120.227 E0.0377
G1 X60.411 Y119.813 E0.03769
G1 X59.967 Y119.341 E0.03772
G1 X59.586 Y118.818 E0.03766
G1 X59.271 Y118.251 E0.03775
G1 X59.029 Y117.651 E0.03766
G1 X58.862 Y117.025 E0.03771
G1 X58.761 Y116.132 E0.05231
G1 X58.75 Y115.658 E0.0276
G1 X58.751 Y104.595 E0.64392
G1 X58.761 Y103.93 E0.03871
G1 X58.81 Y103.284 E0.03771
G1 X58.939 Y102.649 E0.03772
G1 X59.145 Y102.035 E0.0377
G1 X59.425 Y101.451 E0.0377
G1 X59.775 Y100.906 E0.0377
G1 X60.189 Y100.408 E0.03769
G1 X60.662 Y99.965 E0.03772
G1 X61.186 Y99.584 E0.03771
G1 F1200 E-2
G1 F300 Z0.72
;MESH:BodyBox.stl(2)
G0 F7500 X65.25 Y105.25
;TYPE:WALL-INNER
G1 F300 Z0.52
G1 F1200 E2
G1 F1350 X65.25 Y114.75 E0.55295
G1 X74.75 Y114.75 E0.55295
G1 X74.75 Y105.25 E0.55295
G1 X65.25 Y105.25 E0.55295
G0 F7500 X64.75 Y104.75
G1 F1350 X64.75 Y115.25 E0.61115
G1 X75.25 Y115.25 E0.61115
G1 X75.25 Y104.75 E0.61115
G1 X64.75 Y104.75 E0.61115
G0 F7500 X64.25 Y104.25
;TYPE:WALL-OUTER
G1 F1500 X64.25 Y115.75 E0.66936
G1 X75.75 Y115.75 E0.66936
G1 X75.75 Y104.25 E0.66936
G1 X64.25 Y104.25 E0.66936
G1 F1200 E-2
G0 F7500 X64.58 Y104.58
G0 X65.698 Y105.698
;TYPE:SKIN
G1 F1200 E2
G1 F1350 X74.298 Y105.698 E0.50057
G1 X74.298 Y114.298 E0.50057
G1 X65.698 Y114.298 E0.50057
G1 X65.698 Y105.698 E0.50057
G0 F7500 X65.948 Y106.586
G1 F1350 X66.586 Y105.948 E0.05252
G0 F7500 X67.293 Y105.948
G1 F1350 X65.948 Y107.293 E0.11071
G0 F7500 X65.948 Y108
G1 F1350 X68 Y105.948 E0.16891
G0 F7500 X68.707 Y105.948
G1 F1350 X65.948 Y108.707 E0.22711
G0 F7500 X65.948 Y109.414
G1 F1350 X69.415 Y105.948 E0.28534
G0 F7500 X70.122 Y105.948
G1 F1350 X65.948 Y110.121 E0.34354
G0 F7500 X65.948 Y110.828
G1 F1350 X70.829 Y105.948 E0.40174
G0 F7500 X71.536 Y105.948
G1 F1350 X65.948 Y111.535 E0.45993
G0 F7500 X65.948 Y112.243
G1 F1350 X72.243 Y105.948 E0.51817
G0 F7500 X72.95 Y105.948
G1 F1350 X65.948 Y112.95 E0.57637
G0 F7500 X65.948 Y113.657
G1 F1350 X73.657 Y105.948 E0.63456
G0 F7500 X74.048 Y106.265
G1 F1350 X66.264 Y114.048 E0.6407
G0 F7500 X66.971 Y114.048
G1 F1350 X74.048 Y106.972 E0.5825
G0 F7500 X74.048 Y107.679
G1 F1350 X67.679 Y114.048 E0.52426
G0 F7500 X68.386 Y114.048
G1 F1350 X74.048 Y108.386 E0.46607
G0 F7500 X74.048 Y109.093
G1 F1350 X69.093 Y114.048 E0.40787
G0 F7500 X69.8 Y114.048
G1 F1350 X74.048 Y109.8 E0.34967
G0 F7500 X74.048 Y110.507
G1 F1350 X70.507 Y114.048 E0.29148
G0 F7500 X71.214 Y114.048
G1 F1350 X74.048 Y111.214 E0.23328
G0 F7500 X74.048 Y111.922
G1 F1350 X71.921 Y114.048 E0.17504
G0 F7500 X72.628 Y114.048
G1 F1350 X74.048 Y112.629 E0.11685
G0 F7500 X74.048 Y113.336
G1 F1350 X73.335 Y114.048 E0.05865
;MESH:NONMESH
G0 F300 Z0.8
G0 F7500 X65.08 Y105.08
G0 X64.75 Y104.75
;TIME_ELAPSED:449.452978
;LAYER:2
;note -- min layer time used
M106 S59.5
;TYPE:WALL-INNER
;MESH:BodyBox.stl(2)
G1 F797.6 X64.75 Y115.25 E0.61115
G1 X75.25 Y115.25 E0.61115
G1 X75.25 Y104.75 E0.61115
G1 X64.75 Y104.75 E0.61115
G0 F9000 X64.25 Y104.25
;TYPE:WALL-OUTER
G1 F797.6 X64.25 Y115.75 E0.66936
G1 X75.75 Y115.75 E0.66936
G1 X75.75 Y104.25 E0.66936
G1 X64.25 Y104.25 E0.66936
G1 F1200 E-2
G0 F9000 X64.58 Y104.58
G0 X65.11 Y112.17
G0 X65.1 Y112.17
;TYPE:FILL
G1 F1200 E2
G1 F797.6 X67.829 Y114.9 E0.22468
G0 F9000 X67.829 Y114.89
G0 X65.11 Y114.9
G0 X65.1 Y114.9
G1 F797.6 X74.9 Y114.9 E0.57041
G1 X65.1 Y105.1 E0.80668
G1 X74.9 Y105.1 E0.57041
G0 F9000 X74.9 Y105.11
G0 X72.172 Y105.11
G0 X72.172 Y105.1
G1 F797.6 X74.9 Y107.829 E0.2246
G0 F9000 X74.49 Y107.829
;MESH:NONMESH
G0 F300 Z1.08
G0 F9000 X65.25 Y105.25
;TIME_ELAPSED:460.496608
;LAYER:3
;note -- min layer time used
M106 S89.2
;TYPE:WALL-INNER
;MESH:BodyBox.stl(2)
G1 F963.8 X65.25 Y114.75 E0.55295
G1 X74.75 Y114.75 E0.55295
G1 X74.75 Y105.25 E0.55295
G1 X65.25 Y105.25 E0.55295
G0 F9000 X64.75 Y104.75
G1 F963.8 X64.75 Y115.25 E0.61115
G1 X75.25 Y115.25 E0.61115
G1 X75.25 Y104.75 E0.61115
G1 X64.75 Y104.75 E0.61115
G0 F9000 X64.25 Y104.25
;TYPE:WALL-OUTER
G1 F963.8 X64.25 Y115.75 E0.66936
G1 X75.75 Y115.75 E0.66936
G1 X75.75 Y104.25 E0.66936
G1 X64.25 Y104.25 E0.66936
G1 F1200 E-2
G0 F9000 X64.58 Y104.58
G0 X67.329 Y105.6
;TYPE:FILL
G1 F1200 E2
G1 F963.8 X65.6 Y107.328 E0.14228
G1 X65.6 Y114.4 E0.41163
G1 X74.4 Y105.6 E0.72437
G1 X74.4 Y112.671 E0.41157
G1 X72.671 Y114.4 E0.14232
;MESH:NONMESH
G0 F300 Z1.36
G0 F9000 X65.08 Y105.08
G0 X64.75 Y104.75
;TIME_ELAPSED:471.383199
;LAYER:4
;note -- min layer time used
;TYPE:WALL-INNER
;MESH:BodyBox.stl(2)
G1 F797.5 X64.75 Y115.25 E0.61115
G1 X75.25 Y115.25 E0.61115
G1 X75.25 Y104.75 E0.61115
G1 X64.75 Y104.75 E0.61115
G0 F9000 X64.25 Y104.25
;TYPE:WALL-OUTER
G1 F797.5 X64.25 Y115.75 E0.66936
G1 X75.75 Y115.75 E0.66936
G1 X75.75 Y104.25 E0.66936
G1 X64.25 Y104.25 E0.66936
G1 F1200 E-2
G0 F9000 X64.58 Y104.58
G0 X65.11 Y112.17
G0 X65.1 Y112.17
;TYPE:FILL
G1 F1200 E2
G1 F797.5 X67.829 Y114.9 E0.22468
G0 F9000 X67.829 Y114.89
G0 X65.11 Y114.9
G0 X65.1 Y114.9
G1 F797.5 X74.9 Y114.9 E0.57041
G1 X65.1 Y105.1 E0.80668
G1 X74.9 Y105.1 E0.57041
G0 F9000 X74.9 Y105.11
G0 X72.172 Y105.11
G0 X72.172 Y105.1
G1 F797.5 X74.9 Y107.829 E0.2246
G0 F9000 X74.49 Y107.829
;MESH:NONMESH
G0 F300 Z1.64
G0 F9000 X65.25 Y105.25
;TIME_ELAPSED:482.427939
;LAYER:5
;note -- min layer time used
;TYPE:WALL-INNER
;MESH:BodyBox.stl(2)
G1 F963.8 X65.25 Y114.75 E0.55295
G1 X74.75 Y114.75 E0.55295
G1 X74.75 Y105.25 E0.55295
G1 X65.25 Y105.25 E0.55295
G0 F9000 X64.75 Y104.75
G1 F963.8 X64.75 Y115.25 E0.61115
G1 X75.25 Y115.25 E0.61115
G1 X75.25 Y104.75 E0.61115
G1 X64.75 Y104.75 E0.61115
G0 F9000 X64.25 Y104.25
;TYPE:WALL-OUTER
G1 F963.8 X64.25 Y115.75 E0.66936
G1 X75.75 Y115.75 E0.66936
G1 X75.75 Y104.25 E0.66936
G1 X64.25 Y104.25 E0.66936
G1 F1200 E-2
G0 F9000 X64.58 Y104.58
G0 X67.329 Y105.6
;TYPE:FILL
G1 F1200 E2
G1 F963.8 X65.6 Y107.328 E0.14228
G1 X65.6 Y114.4 E0.41163
G1 X74.4 Y105.6 E0.72437
G1 X74.4 Y112.671 E0.41157
G1 X72.671 Y114.4 E0.14232
;MESH:NONMESH
G0 F300 Z1.92
G0 F9000 X65.08 Y105.08
G0 X64.75 Y104.75
;TIME_ELAPSED:493.314530
;LAYER:6
;note -- min layer time used
;TYPE:WALL-INNER
;MESH:BodyBox.stl(2)
G1 F797.5 X64.75 Y115.25 E0.61115
G1 X75.25 Y115.25 E0.61115
G1 X75.25 Y104.75 E0.61115
G1 X64.75 Y104.75 E0.61115
G0 F9000 X64.25 Y104.25
;TYPE:WALL-OUTER
G1 F797.5 X64.25 Y115.75 E0.66936
G1 X75.75 Y115.75 E0.66936
G1 X75.75 Y104.25 E0.66936
G1 X64.25 Y104.25 E0.66936
G1 F1200 E-2
G0 F9000 X64.58 Y104.58
G0 X65.11 Y112.17
G0 X65.1 Y112.17
;TYPE:FILL
G1 F1200 E2
G1 F797.5 X67.829 Y114.9 E0.22468
G0 F9000 X67.829 Y114.89
G0 X65.11 Y114.9
G0 X65.1 Y114.9
G1 F797.5 X74.9 Y114.9 E0.57041
G1 X65.1 Y105.1 E0.80668
G1 X74.9 Y105.1 E0.57041
G0 F9000 X74.9 Y105.11
G0 X72.172 Y105.11
G0 X72.172 Y105.1
G1 F797.5 X74.9 Y107.829 E0.2246
G0 F9000 X74.49 Y107.829
;MESH:NONMESH
G0 F300 Z2.2
G0 F9000 X65.25 Y105.25
;TIME_ELAPSED:504.359271
;LAYER:7
;note -- min layer time used
;TYPE:WALL-INNER
;MESH:BodyBox.stl(2)
G1 F963.8 X65.25 Y114.75 E0.55295
G1 X74.75 Y114.75 E0.55295
G1 X74.75 Y105.25 E0.55295
G1 X65.25 Y105.25 E0.55295
G0 F9000 X64.75 Y104.75
G1 F963.8 X64.75 Y115.25 E0.61115
G1 X75.25 Y115.25 E0.61115
G1 X75.25 Y104.75 E0.61115
G1 X64.75 Y104.75 E0.61115
G0 F9000 X64.25 Y104.25
;TYPE:WALL-OUTER
G1 F963.8 X64.25 Y115.75 E0.66936
G1 X75.75 Y115.75 E0.66936
G1 X75.75 Y104.25 E0.66936
G1 X64.25 Y104.25 E0.66936
G1 F1200 E-2
G0 F9000 X64.58 Y104.58
G0 X67.329 Y105.6
;TYPE:FILL
G1 F1200 E2
G1 F963.8 X65.6 Y107.328 E0.14228
G1 X65.6 Y114.4 E0.41163
G1 X74.4 Y105.6 E0.72437
G1 X74.4 Y112.671 E0.41157
G1 X72.671 Y114.4 E0.14232
;MESH:NONMESH
G0 F300 Z2.48
G0 F9000 X65.08 Y105.08
G0 X64.75 Y104.75
;TIME_ELAPSED:515.245861
;LAYER:8
;note -- min layer time used
;TYPE:WALL-INNER
;MESH:BodyBox.stl(2)
G1 F797.5 X64.75 Y115.25 E0.61115
G1 X75.25 Y115.25 E0.61115
G1 X75.25 Y104.75 E0.61115
G1 X64.75 Y104.75 E0.61115
G0 F9000 X64.25 Y104.25
;TYPE:WALL-OUTER
G1 F797.5 X64.25 Y115.75 E0.66936
G1 X75.75 Y115.75 E0.66936
G1 X75.75 Y104.25 E0.66936
G1 X64.25 Y104.25 E0.66936
G1 F1200 E-2
G0 F9000 X64.58 Y104.58
G0 X65.11 Y112.17
G0 X65.1 Y112.17
;TYPE:FILL
G1 F1200 E2
G1 F797.5 X67.829 Y114.9 E0.22468
G0 F9000 X67.829 Y114.89
G0 X65.11 Y114.9
G0 X65.1 Y114.9
G1 F797.5 X74.9 Y114.9 E0.57041
G1 X65.1 Y105.1 E0.80668
G1 X74.9 Y105.1 E0.57041
G0 F9000 X74.9 Y105.11
G0 X72.172 Y105.11
G0 X72.172 Y105.1
G1 F797.5 X74.9 Y107.829 E0.2246
G0 F9000 X74.49 Y107.829
;MESH:NONMESH
G0 F300 Z2.76
G0 F9000 X65.25 Y105.25
;TIME_ELAPSED:526.290602
;LAYER:9
;note -- min layer time used
;TYPE:WALL-INNER
;MESH:BodyBox.stl(2)
G1 F963.8 X65.25 Y114.75 E0.55295
G1 X74.75 Y114.75 E0.55295
G1 X74.75 Y105.25 E0.55295
G1 X65.25 Y105.25 E0.55295
G0 F9000 X64.75 Y104.75
G1 F963.8 X64.75 Y115.25 E0.61115
G1 X75.25 Y115.25 E0.61115
G1 X75.25 Y104.75 E0.61115
G1 X64.75 Y104.75 E0.61115
G0 F9000 X64.25 Y104.25
;TYPE:WALL-OUTER
G1 F963.8 X64.25 Y115.75 E0.66936
G1 X75.75 Y115.75 E0.66936
G1 X75.75 Y104.25 E0.66936
G1 X64.25 Y104.25 E0.66936
G1 F1200 E-2
G0 F9000 X64.58 Y104.58
G0 X67.329 Y105.6
;TYPE:FILL
G1 F1200 E2
G1 F963.8 X65.6 Y107.328 E0.14228
G1 X65.6 Y114.4 E0.41163
G1 X74.4 Y105.6 E0.72437
G1 X74.4 Y112.671 E0.41157
G1 X72.671 Y114.4 E0.14232
;MESH:NONMESH
G0 F300 Z3.04
G0 F9000 X65.08 Y105.08
G0 X64.75 Y104.75
;TIME_ELAPSED:537.177192
;LAYER:10
;note -- min layer time used
;TYPE:WALL-INNER
;MESH:BodyBox.stl(2)
G1 F797.5 X64.75 Y115.25 E0.61115
G1 X75.25 Y115.25 E0.61115
G1 X75.25 Y104.75 E0.61115
G1 X64.75 Y104.75 E0.61115
G0 F9000 X64.25 Y104.25
;TYPE:WALL-OUTER
G1 F797.5 X64.25 Y115.75 E0.66936
G1 X75.75 Y115.75 E0.66936
G1 X75.75 Y104.25 E0.66936
G1 X64.25 Y104.25 E0.66936
G1 F1200 E-2
G0 F9000 X64.58 Y104.58
G0 X65.11 Y112.17
G0 X65.1 Y112.17
;TYPE:FILL
G1 F1200 E2
G1 F797.5 X67.829 Y114.9 E0.22468
G0 F9000 X67.829 Y114.89
G0 X65.11 Y114.9
G0 X65.1 Y114.9
G1 F797.5 X74.9 Y114.9 E0.57041
G1 X65.1 Y105.1 E0.80668
G1 X74.9 Y105.1 E0.57041
G0 F9000 X74.9 Y105.11
G0 X72.172 Y105.11
G0 X72.172 Y105.1
G1 F797.5 X74.9 Y107.829 E0.2246
G0 F9000 X74.49 Y107.829
;MESH:NONMESH
G0 F300 Z3.32
G0 F9000 X65.25 Y105.25
;TIME_ELAPSED:548.221933
;LAYER:11
;TYPE:WALL-INNER
;MESH:BodyBox.stl(2)
G1 F1500 X65.25 Y114.75 E0.55295
G1 X74.75 Y114.75 E0.55295
G1 X74.75 Y105.25 E0.55295
G1 X65.25 Y105.25 E0.55295
G0 F9000 X64.75 Y104.75
G1 F1500 X64.75 Y115.25 E0.61115
G1 X75.25 Y115.25 E0.61115
G1 X75.25 Y104.75 E0.61115
G1 X64.75 Y104.75 E0.61115
G0 F9000 X64.25 Y104.25
;TYPE:WALL-OUTER
G1 F1800 X64.25 Y115.75 E0.66936
G1 X75.75 Y115.75 E0.66936
G1 X75.75 Y104.25 E0.66936
G1 X64.25 Y104.25 E0.66936
G1 F1200 E-2
G0 F9000 X64.58 Y104.58
G0 X65.6 Y105.914
M106 S191.2
;TYPE:FILL
G1 F1200 E2
G1 F750 X65.914 Y105.6 E0.01551
G0 F9000 X66.621 Y105.6
G1 F750 X65.6 Y106.621 E0.05043
G0 F9000 X65.6 Y107.328
G1 F750 X67.329 Y105.6 E0.08537
G0 F9000 X68.036 Y105.6
G1 F750 X65.6 Y108.035 E0.12029
G0 F9000 X65.6 Y108.742
G1 F750 X68.743 Y105.6 E0.1552
G0 F9000 X69.45 Y105.6
G1 F750 X65.6 Y109.45 E0.19015
G0 F9000 X65.6 Y110.157
G1 F750 X70.157 Y105.6 E0.22506
G0 F9000 X70.864 Y105.6
G1 F750 X65.6 Y110.864 E0.25998
G0 F9000 X65.6 Y111.571
G1 F750 X71.571 Y105.6 E0.2949
G0 F9000 X72.278 Y105.6
G1 F750 X65.6 Y112.278 E0.32982
G0 F9000 X65.6 Y112.985
G1 F750 X72.985 Y105.6 E0.36474
G0 F9000 X73.693 Y105.6
G1 F750 X65.6 Y113.692 E0.39968
G0 F9000 X65.6 Y114.4
G1 F750 X74.4 Y105.6 E0.43462
G0 F9000 X74.4 Y106.307
G1 F750 X66.307 Y114.4 E0.3997
G0 F9000 X67.014 Y114.4
G1 F750 X74.4 Y107.014 E0.36479
G0 F9000 X74.4 Y107.721
G1 F750 X67.721 Y114.4 E0.32987
G0 F9000 X68.428 Y114.4
G1 F750 X74.4 Y108.428 E0.29495
G0 F9000 X74.4 Y109.136
G1 F750 X69.135 Y114.4 E0.26001
G0 F9000 X69.842 Y114.4
G1 F750 X74.4 Y109.843 E0.22509
G0 F9000 X74.358 Y110.592
G1 F750 X70.549 Y114.4 E0.1881
G0 F9000 X71.257 Y114.4
G1 F750 X74.313 Y111.344 E0.15093
G0 F9000 X74.268 Y112.096
G1 F750 X71.964 Y114.4 E0.11379
G0 F9000 X72.671 Y114.4
G1 F750 X74.223 Y112.848 E0.07665
G0 F9000 X74.178 Y113.6
G1 F750 X73.378 Y114.4 E0.03951
;MESH:NONMESH
G0 F300 Z3.6
G0 F9000 X65.08 Y105.08
G0 X64.75 Y104.75
;TIME_ELAPSED:568.114364
;LAYER:12
M106 S89.2
;TYPE:WALL-INNER
;MESH:BodyBox.stl(2)
G1 F1500 X64.75 Y115.25 E0.61115
G1 X75.25 Y115.25 E0.61115
G1 X75.25 Y104.75 E0.61115
G1 X64.75 Y104.75 E0.61115
G0 F9000 X64.25 Y104.25
;TYPE:WALL-OUTER
G1 F1800 X64.25 Y115.75 E0.66936
G1 X75.75 Y115.75 E0.66936
G1 X75.75 Y104.25 E0.66936
G1 X64.25 Y104.25 E0.66936
G0 F9000 X64.58 Y104.58
G0 X65.198 Y105.198
;TYPE:SKIN
G1 F1500 X74.798 Y105.198 E0.55877
G1 X74.798 Y114.798 E0.55877
G1 X65.198 Y114.798 E0.55877
G1 X65.198 Y105.198 E0.55877
G0 F9000 X74.548 Y105.661
G1 F1500 X74.335 Y105.448 E0.01753
G0 F9000 X73.628 Y105.448
G1 F1500 X74.548 Y106.368 E0.07573
G0 F9000 X74.548 Y107.075
G1 F1500 X72.921 Y105.448 E0.13393
G0 F9000 X72.214 Y105.448
G1 F1500 X74.548 Y107.782 E0.19212
G0 F9000 X74.548 Y108.489
G1 F1500 X71.507 Y105.448 E0.25032
G0 F9000 X70.8 Y105.448
G1 F1500 X74.548 Y109.196 E0.30852
G0 F9000 X74.548 Y109.903
G1 F1500 X70.093 Y105.448 E0.36671
G0 F9000 X69.386 Y105.448
G1 F1500 X74.548 Y110.611 E0.42495
G0 F9000 X74.548 Y111.318
G1 F1500 X68.678 Y105.448 E0.48319
G0 F9000 X67.971 Y105.448
G1 F1500 X74.548 Y112.025 E0.54138
G0 F9000 X74.548 Y112.732
G1 F1500 X67.264 Y105.448 E0.59958
G0 F9000 X66.557 Y105.448
G1 F1500 X74.548 Y113.439 E0.65778
G0 F9000 X74.548 Y114.146
G1 F1500 X65.85 Y105.448 E0.71597
G0 F9000 X65.448 Y105.753
G1 F1500 X74.243 Y114.548 E0.72396
G0 F9000 X73.536 Y114.548
G1 F1500 X65.448 Y106.46 E0.66576
G0 F9000 X65.448 Y107.167
G1 F1500 X72.828 Y114.548 E0.60752
G0 F9000 X72.121 Y114.548
G1 F1500 X65.448 Y107.874 E0.54933
G0 F9000 X65.448 Y108.581
G1 F1500 X71.414 Y114.548 E0.49113
G0 F9000 X70.707 Y114.548
G1 F1500 X65.448 Y109.288 E0.43293
G0 F9000 X65.448 Y109.995
G1 F1500 X70 Y114.548 E0.37474
G0 F9000 X69.293 Y114.548
G1 F1500 X65.448 Y110.703 E0.3165
G0 F9000 X65.448 Y111.41
G1 F1500 X68.586 Y114.548 E0.2583
G0 F9000 X67.879 Y114.548
G1 F1500 X65.448 Y112.117 E0.20011
G0 F9000 X65.448 Y112.824
G1 F1500 X67.172 Y114.548 E0.14191
G0 F9000 X66.465 Y114.548
G1 F1500 X65.448 Y113.531 E0.08371
G0 F9000 X65.448 Y114.238
G1 F1500 X65.757 Y114.548 E0.02548
G0 F9000 X65.757 Y114.49
;MESH:NONMESH
G0 F300 Z3.88
G0 F9000 X65.25 Y105.25
;TIME_ELAPSED:582.796679
;LAYER:13
;TYPE:WALL-INNER
;MESH:BodyBox.stl(2)
G1 F1500 X65.25 Y114.75 E0.55295
G1 X74.75 Y114.75 E0.55295
G1 X74.75 Y105.25 E0.55295
G1 X65.25 Y105.25 E0.55295
G0 F9000 X64.75 Y104.75
G1 F1500 X64.75 Y115.25 E0.61115
G1 X75.25 Y115.25 E0.61115
G1 X75.25 Y104.75 E0.61115
G1 X64.75 Y104.75 E0.61115
G0 F9000 X64.25 Y104.25
;TYPE:WALL-OUTER
G1 F1800 X64.25 Y115.75 E0.66936
G1 X75.75 Y115.75 E0.66936
G1 X75.75 Y104.25 E0.66936
G1 X64.25 Y104.25 E0.66936
G1 F1200 E-2
G0 F9000 X64.58 Y104.58
G0 X65.698 Y105.698
;TYPE:SKIN
G1 F1200 E2
G1 F1500 X74.298 Y105.698 E0.50057
G1 X74.298 Y114.298 E0.50057
G1 X65.698 Y114.298 E0.50057
G1 X65.698 Y105.698 E0.50057
G0 F9000 X65.948 Y106.586
G1 F1500 X66.586 Y105.948 E0.05252
G0 F9000 X67.293 Y105.948
G1 F1500 X65.948 Y107.293 E0.11071
G0 F9000 X65.948 Y108
G1 F1500 X68 Y105.948 E0.16891
G0 F9000 X68.707 Y105.948
G1 F1500 X65.948 Y108.707 E0.22711
G0 F9000 X65.948 Y109.414
G1 F1500 X69.415 Y105.948 E0.28534
G0 F9000 X70.122 Y105.948
G1 F1500 X65.948 Y110.121 E0.34354
G0 F9000 X65.948 Y110.828
G1 F1500 X70.829 Y105.948 E0.40174
G0 F9000 X71.536 Y105.948
G1 F1500 X65.948 Y111.535 E0.45993
G0 F9000 X65.948 Y112.243
G1 F1500 X72.243 Y105.948 E0.51817
G0 F9000 X72.95 Y105.948
G1 F1500 X65.948 Y112.95 E0.57637
G0 F9000 X65.948 Y113.657
G1 F1500 X73.657 Y105.948 E0.63456
G0 F9000 X74.048 Y106.265
G1 F1500 X66.264 Y114.048 E0.6407
G0 F9000 X66.971 Y114.048
G1 F1500 X74.048 Y106.972 E0.5825
G0 F9000 X74.048 Y107.679
G1 F1500 X67.679 Y114.048 E0.52426
G0 F9000 X68.386 Y114.048
G1 F1500 X74.048 Y108.386 E0.46607
G0 F9000 X74.048 Y109.093
G1 F1500 X69.093 Y114.048 E0.40787
G0 F9000 X69.8 Y114.048
G1 F1500 X74.048 Y109.8 E0.34967
G0 F9000 X74.048 Y110.507
G1 F1500 X70.507 Y114.048 E0.29148
G0 F9000 X71.214 Y114.048
G1 F1500 X74.048 Y111.214 E0.23328
G0 F9000 X74.048 Y111.922
G1 F1500 X71.921 Y114.048 E0.17504
G0 F9000 X72.628 Y114.048
G1 F1500 X74.048 Y112.629 E0.11685
G0 F9000 X74.048 Y113.336
G1 F1500 X73.335 Y114.048 E0.05865
;TIME_ELAPSED:597.021744
;LAYER:1
;TYPE:CUSTOM
;HYBRID_SEQUENCE:SAFE_TRANSITION
G90 ; hybrid: absolute positioning
M83 ; hybrid: restore relative extrusion after G90
G0 Z14.000 ; hybrid: clear completed object
G0 X140.274 Y100.906 ; hybrid: move above next object
G0 Z0.440 ; hybrid: descend to target layer

M140 S75
M106 S29.8
G0 F7500 Z0.72
;TYPE:SKIRT
G1 F300 Z0.52
G1 F1200 E2
G1 X140.688 Y100.408 E0.03769
G1 X141.161 Y99.965 E0.03772
G1 X141.685 Y99.584 E0.03771
G1 X142.251 Y99.269 E0.0377
G1 X142.852 Y99.027 E0.03771
G1 X143.478 Y98.861 E0.0377
G1 X144.361 Y98.761 E0.05172
G1 X144.829 Y98.75 E0.02725
G1 X155.792 Y98.75 E0.6381
G1 X156.565 Y98.761 E0.045
G1 X157.211 Y98.81 E0.03771
G1 X157.846 Y98.938 E0.0377
G1 X158.46 Y99.144 E0.0377
G1 X159.045 Y99.423 E0.03772
G1 X159.59 Y99.773 E0.0377
G1 X160.088 Y100.187 E0.03769
G1 X160.532 Y100.659 E0.03772
G1 X160.913 Y101.182 E0.03766
G1 X161.228 Y101.749 E0.03775
G1 X161.47 Y102.349 E0.03766
G1 X161.637 Y102.975 E0.03771
G1 X161.738 Y103.862 E0.05196
G1 X161.749 Y104.33 E0.02725
G1 X161.749 Y115.336 E0.64061
G1 X161.739 Y116.063 E0.04232
G1 X161.69 Y116.709 E0.03771
G1 X161.562 Y117.344 E0.0377
G1 X161.356 Y117.959 E0.03775
G1 X161.077 Y118.543 E0.03767
G1 X160.728 Y119.089 E0.03772
G1 X160.314 Y119.587 E0.03769
G1 X159.842 Y120.031 E0.03772
G1 X159.319 Y120.413 E0.0377
G1 X158.753 Y120.728 E0.0377
G1 X158.153 Y120.97 E0.03766
G1 X157.527 Y121.137 E0.03771
G1 X156.637 Y121.239 E0.05214
G1 X156.169 Y121.25 E0.02725
G1 X145.131 Y121.249 E0.64247
G1 X144.433 Y121.239 E0.04063
G1 X143.787 Y121.19 E0.03771
G1 X143.152 Y121.062 E0.0377
G1 X142.538 Y120.856 E0.0377
G1 X141.953 Y120.577 E0.03772
G1 X141.408 Y120.227 E0.0377
G1 X140.91 Y119.813 E0.03769
G1 X140.466 Y119.341 E0.03772
G1 X140.085 Y118.818 E0.03766
G1 X139.77 Y118.251 E0.03775
G1 X139.528 Y117.651 E0.03766
G1 X139.361 Y117.025 E0.03771
G1 X139.26 Y116.132 E0.05231
G1 X139.249 Y115.658 E0.0276
G1 X139.25 Y104.595 E0.64392
G1 X139.26 Y103.93 E0.03871
G1 X139.309 Y103.284 E0.03771
G1 X139.438 Y102.649 E0.03772
G1 X139.644 Y102.035 E0.0377
G1 X139.924 Y101.451 E0.0377
G1 X140.274 Y100.906 E0.0377
G1 F1200 E-2
G1 F300 Z0.72
;MESH:BodyBox.stl(3)
G0 F7500 X145.746 Y105.25
;TYPE:WALL-INNER
G1 F300 Z0.52
G1 F1200 E2
G1 F1350 X145.746 Y114.75 E0.55295
G1 X155.246 Y114.75 E0.55295
G1 X155.246 Y105.25 E0.55295
G1 X145.746 Y105.25 E0.55295
G0 F7500 X145.246 Y104.75
G1 F1350 X145.246 Y115.25 E0.61115
G1 X155.746 Y115.25 E0.61115
G1 X155.746 Y104.75 E0.61115
G1 X145.246 Y104.75 E0.61115
G0 F7500 X144.746 Y104.25
;TYPE:WALL-OUTER
G1 F1500 X144.746 Y115.75 E0.66936
G1 X156.246 Y115.75 E0.66936
G1 X156.246 Y104.25 E0.66936
G1 X144.746 Y104.25 E0.66936
G1 F1200 E-2
G0 F7500 X145.079 Y104.58
G0 X146.194 Y105.698
;TYPE:SKIN
G1 F1200 E2
G1 F1350 X154.794 Y105.698 E0.50057
G1 X154.794 Y114.298 E0.50057
G1 X146.194 Y114.298 E0.50057
G1 X146.194 Y105.698 E0.50057
G0 F7500 X146.444 Y106.7
G1 F1350 X147.196 Y105.948 E0.0619
G0 F7500 X147.903 Y105.948
G1 F1350 X146.444 Y107.407 E0.1201
G0 F7500 X146.444 Y108.115
G1 F1350 X148.611 Y105.948 E0.17838
G0 F7500 X149.318 Y105.948
G1 F1350 X146.444 Y108.822 E0.23657
G0 F7500 X146.444 Y109.529
G1 F1350 X150.025 Y105.948 E0.29477
G0 F7500 X150.732 Y105.948
G1 F1350 X146.444 Y110.236 E0.35297
G0 F7500 X146.444 Y110.943
G1 F1350 X151.439 Y105.948 E0.41116
G0 F7500 X152.146 Y105.948
G1 F1350 X146.444 Y111.65 E0.46936
G0 F7500 X146.444 Y112.357
G1 F1350 X152.853 Y105.948 E0.52755
G0 F7500 X153.56 Y105.948
G1 F1350 X146.444 Y113.064 E0.58575
G0 F7500 X146.444 Y113.771
G1 F1350 X154.267 Y105.948 E0.64395
G0 F7500 X154.544 Y106.379
G1 F1350 X146.874 Y114.049 E0.63135
G0 F7500 X147.581 Y114.049
G1 F1350 X154.544 Y107.086 E0.57316
G0 F7500 X154.544 Y107.793
G1 F1350 X148.288 Y114.049 E0.51496
G0 F7500 X148.995 Y114.049
G1 F1350 X154.544 Y108.5 E0.45676
G0 F7500 X154.544 Y109.207
G1 F1350 X149.702 Y114.049 E0.39857
G0 F7500 X150.409 Y114.049
G1 F1350 X154.544 Y109.914 E0.34037
G0 F7500 X154.544 Y110.621
G1 F1350 X151.116 Y114.049 E0.28217
G0 F7500 X151.824 Y114.049
G1 F1350 X154.544 Y111.328 E0.22394
G0 F7500 X154.544 Y112.035
G1 F1350 X152.531 Y114.049 E0.16574
G0 F7500 X153.238 Y114.049
G1 F1350 X154.544 Y112.743 E0.1075
G0 F7500 X154.544 Y113.45
G1 F1350 X153.945 Y114.049 E0.04931
;MESH:NONMESH
G0 F300 Z0.8
G0 F7500 X145.579 Y105.08
G0 X145.246 Y104.75
;TIME_ELAPSED:646.960686
;LAYER:2
;note -- min layer time used
M106 S59.5
;TYPE:WALL-INNER
;MESH:BodyBox.stl(3)
G1 F796.2 X145.246 Y115.25 E0.61115
G1 X155.746 Y115.25 E0.61115
G1 X155.746 Y104.75 E0.61115
G1 X145.246 Y104.75 E0.61115
G0 F9000 X144.746 Y104.25
;TYPE:WALL-OUTER
G1 F796.2 X144.746 Y115.75 E0.66936
G1 X156.246 Y115.75 E0.66936
G1 X156.246 Y104.25 E0.66936
G1 X144.746 Y104.25 E0.66936
G1 F1200 E-2
G0 F9000 X145.079 Y104.58
G0 X145.609 Y114.89
G0 X145.595 Y114.9
;TYPE:FILL
G1 F1200 E2
G1 F796.2 X148.328 Y114.9 E0.15907
G1 X145.595 Y112.168 E0.22492
G1 X145.596 Y105.1 E0.41139
G1 X155.396 Y114.897 E0.80656
G1 X155.396 Y107.826 E0.41157
G1 X152.67 Y105.1 E0.22439
G1 X155.396 Y105.099 E0.15867
G0 F9000 X154.989 Y105.51
;MESH:NONMESH
G0 F300 Z1.08
G0 F9000 X145.746 Y105.25
;TIME_ELAPSED:657.787847
;LAYER:3
;note -- min layer time used
M106 S89.2
;TYPE:WALL-INNER
;MESH:BodyBox.stl(3)
G1 F963.5 X145.746 Y114.75 E0.55295
G1 X155.246 Y114.75 E0.55295
G1 X155.246 Y105.25 E0.55295
G1 X145.746 Y105.25 E0.55295
G0 F9000 X145.246 Y104.75
G1 F963.5 X145.246 Y115.25 E0.61115
G1 X155.746 Y115.25 E0.61115
G1 X155.746 Y104.75 E0.61115
G1 X145.246 Y104.75 E0.61115
G0 F9000 X144.746 Y104.25
;TYPE:WALL-OUTER
G1 F963.5 X144.746 Y115.75 E0.66936
G1 X156.246 Y115.75 E0.66936
G1 X156.246 Y104.25 E0.66936
G1 X144.746 Y104.25 E0.66936
G1 F1200 E-2
G0 F9000 X145.079 Y104.58
G0 X146.096 Y107.331
;TYPE:FILL
G1 F1200 E2
G1 F963.5 X147.828 Y105.599 E0.14257
G1 X154.896 Y105.599 E0.41139
G1 X146.098 Y114.4 E0.72433
G1 X153.169 Y114.4 E0.41157
G1 X154.896 Y112.673 E0.14216
;MESH:NONMESH
G0 F300 Z1.36
G0 F9000 X145.579 Y105.08
G0 X145.246 Y104.75
;TIME_ELAPSED:668.677022
;LAYER:4
;note -- min layer time used
;TYPE:WALL-INNER
;MESH:BodyBox.stl(3)
G1 F796.1 X145.246 Y115.25 E0.61115
G1 X155.746 Y115.25 E0.61115
G1 X155.746 Y104.75 E0.61115
G1 X145.246 Y104.75 E0.61115
G0 F9000 X144.746 Y104.25
;TYPE:WALL-OUTER
G1 F796.1 X144.746 Y115.75 E0.66936
G1 X156.246 Y115.75 E0.66936
G1 X156.246 Y104.25 E0.66936
G1 X144.746 Y104.25 E0.66936
G1 F1200 E-2
G0 F9000 X145.079 Y104.58
G0 X145.609 Y114.89
G0 X145.595 Y114.9
;TYPE:FILL
G1 F1200 E2
G1 F796.1 X148.328 Y114.9 E0.15907
G1 X145.595 Y112.168 E0.22492
G1 X145.596 Y105.1 E0.41139
G1 X155.396 Y114.897 E0.80656
G1 X155.396 Y107.826 E0.41157
G1 X152.67 Y105.1 E0.22439
G1 X155.396 Y105.099 E0.15867
G0 F9000 X154.989 Y105.51
;MESH:NONMESH
G0 F300 Z1.64
G0 F9000 X145.746 Y105.25
;TIME_ELAPSED:679.505792
;LAYER:5
;note -- min layer time used
;TYPE:WALL-INNER
;MESH:BodyBox.stl(3)
G1 F963.5 X145.746 Y114.75 E0.55295
G1 X155.246 Y114.75 E0.55295
G1 X155.246 Y105.25 E0.55295
G1 X145.746 Y105.25 E0.55295
G0 F9000 X145.246 Y104.75
G1 F963.5 X145.246 Y115.25 E0.61115
G1 X155.746 Y115.25 E0.61115
G1 X155.746 Y104.75 E0.61115
G1 X145.246 Y104.75 E0.61115
G0 F9000 X144.746 Y104.25
;TYPE:WALL-OUTER
G1 F963.5 X144.746 Y115.75 E0.66936
G1 X156.246 Y115.75 E0.66936
G1 X156.246 Y104.25 E0.66936
G1 X144.746 Y104.25 E0.66936
G1 F1200 E-2
G0 F9000 X145.079 Y104.58
G0 X146.096 Y107.331
;TYPE:FILL
G1 F1200 E2
G1 F963.5 X147.828 Y105.599 E0.14257
G1 X154.896 Y105.599 E0.41139
G1 X146.098 Y114.4 E0.72433
G1 X153.169 Y114.4 E0.41157
G1 X154.896 Y112.673 E0.14216
;MESH:NONMESH
G0 F300 Z1.92
G0 F9000 X145.579 Y105.08
G0 X145.246 Y104.75
;TIME_ELAPSED:690.394968
;LAYER:6
;note -- min layer time used
;TYPE:WALL-INNER
;MESH:BodyBox.stl(3)
G1 F796.1 X145.246 Y115.25 E0.61115
G1 X155.746 Y115.25 E0.61115
G1 X155.746 Y104.75 E0.61115
G1 X145.246 Y104.75 E0.61115
G0 F9000 X144.746 Y104.25
;TYPE:WALL-OUTER
G1 F796.1 X144.746 Y115.75 E0.66936
G1 X156.246 Y115.75 E0.66936
G1 X156.246 Y104.25 E0.66936
G1 X144.746 Y104.25 E0.66936
G1 F1200 E-2
G0 F9000 X145.079 Y104.58
G0 X145.609 Y114.89
G0 X145.595 Y114.9
;TYPE:FILL
G1 F1200 E2
G1 F796.1 X148.328 Y114.9 E0.15907
G1 X145.595 Y112.168 E0.22492
G1 X145.596 Y105.1 E0.41139
G1 X155.396 Y114.897 E0.80656
G1 X155.396 Y107.826 E0.41157
G1 X152.67 Y105.1 E0.22439
G1 X155.396 Y105.099 E0.15867
G0 F9000 X154.989 Y105.51
;MESH:NONMESH
G0 F300 Z2.2
G0 F9000 X145.746 Y105.25
;TIME_ELAPSED:701.223737
;LAYER:7
;note -- min layer time used
;TYPE:WALL-INNER
;MESH:BodyBox.stl(3)
G1 F963.5 X145.746 Y114.75 E0.55295
G1 X155.246 Y114.75 E0.55295
G1 X155.246 Y105.25 E0.55295
G1 X145.746 Y105.25 E0.55295
G0 F9000 X145.246 Y104.75
G1 F963.5 X145.246 Y115.25 E0.61115
G1 X155.746 Y115.25 E0.61115
G1 X155.746 Y104.75 E0.61115
G1 X145.246 Y104.75 E0.61115
G0 F9000 X144.746 Y104.25
;TYPE:WALL-OUTER
G1 F963.5 X144.746 Y115.75 E0.66936
G1 X156.246 Y115.75 E0.66936
G1 X156.246 Y104.25 E0.66936
G1 X144.746 Y104.25 E0.66936
G1 F1200 E-2
G0 F9000 X145.079 Y104.58
G0 X146.096 Y107.331
;TYPE:FILL
G1 F1200 E2
G1 F963.5 X147.828 Y105.599 E0.14257
G1 X154.896 Y105.599 E0.41139
G1 X146.098 Y114.4 E0.72433
G1 X153.169 Y114.4 E0.41157
G1 X154.896 Y112.673 E0.14216
;MESH:NONMESH
G0 F300 Z2.48
G0 F9000 X145.579 Y105.08
G0 X145.246 Y104.75
;TIME_ELAPSED:712.112913
;LAYER:8
;note -- min layer time used
;TYPE:WALL-INNER
;MESH:BodyBox.stl(3)
G1 F796.1 X145.246 Y115.25 E0.61115
G1 X155.746 Y115.25 E0.61115
G1 X155.746 Y104.75 E0.61115
G1 X145.246 Y104.75 E0.61115
G0 F9000 X144.746 Y104.25
;TYPE:WALL-OUTER
G1 F796.1 X144.746 Y115.75 E0.66936
G1 X156.246 Y115.75 E0.66936
G1 X156.246 Y104.25 E0.66936
G1 X144.746 Y104.25 E0.66936
G1 F1200 E-2
G0 F9000 X145.079 Y104.58
G0 X145.609 Y114.89
G0 X145.595 Y114.9
;TYPE:FILL
G1 F1200 E2
G1 F796.1 X148.328 Y114.9 E0.15907
G1 X145.595 Y112.168 E0.22492
G1 X145.596 Y105.1 E0.41139
G1 X155.396 Y114.897 E0.80656
G1 X155.396 Y107.826 E0.41157
G1 X152.67 Y105.1 E0.22439
G1 X155.396 Y105.099 E0.15867
G0 F9000 X154.989 Y105.51
;MESH:NONMESH
G0 F300 Z2.76
G0 F9000 X145.746 Y105.25
;TIME_ELAPSED:722.941682
;LAYER:9
;note -- min layer time used
;TYPE:WALL-INNER
;MESH:BodyBox.stl(3)
G1 F963.5 X145.746 Y114.75 E0.55295
G1 X155.246 Y114.75 E0.55295
G1 X155.246 Y105.25 E0.55295
G1 X145.746 Y105.25 E0.55295
G0 F9000 X145.246 Y104.75
G1 F963.5 X145.246 Y115.25 E0.61115
G1 X155.746 Y115.25 E0.61115
G1 X155.746 Y104.75 E0.61115
G1 X145.246 Y104.75 E0.61115
G0 F9000 X144.746 Y104.25
;TYPE:WALL-OUTER
G1 F963.5 X144.746 Y115.75 E0.66936
G1 X156.246 Y115.75 E0.66936
G1 X156.246 Y104.25 E0.66936
G1 X144.746 Y104.25 E0.66936
G1 F1200 E-2
G0 F9000 X145.079 Y104.58
G0 X146.096 Y107.331
;TYPE:FILL
G1 F1200 E2
G1 F963.5 X147.828 Y105.599 E0.14257
G1 X154.896 Y105.599 E0.41139
G1 X146.098 Y114.4 E0.72433
G1 X153.169 Y114.4 E0.41157
G1 X154.896 Y112.673 E0.14216
;MESH:NONMESH
G0 F300 Z3.04
G0 F9000 X145.579 Y105.08
G0 X145.246 Y104.75
;TIME_ELAPSED:733.830858
;LAYER:10
;note -- min layer time used
;TYPE:WALL-INNER
;MESH:BodyBox.stl(3)
G1 F796.1 X145.246 Y115.25 E0.61115
G1 X155.746 Y115.25 E0.61115
G1 X155.746 Y104.75 E0.61115
G1 X145.246 Y104.75 E0.61115
G0 F9000 X144.746 Y104.25
;TYPE:WALL-OUTER
G1 F796.1 X144.746 Y115.75 E0.66936
G1 X156.246 Y115.75 E0.66936
G1 X156.246 Y104.25 E0.66936
G1 X144.746 Y104.25 E0.66936
G1 F1200 E-2
G0 F9000 X145.079 Y104.58
G0 X145.609 Y114.89
G0 X145.595 Y114.9
;TYPE:FILL
G1 F1200 E2
G1 F796.1 X148.328 Y114.9 E0.15907
G1 X145.595 Y112.168 E0.22492
G1 X145.596 Y105.1 E0.41139
G1 X155.396 Y114.897 E0.80656
G1 X155.396 Y107.826 E0.41157
G1 X152.67 Y105.1 E0.22439
G1 X155.396 Y105.099 E0.15867
G0 F9000 X154.989 Y105.51
;MESH:NONMESH
G0 F300 Z3.32
G0 F9000 X145.746 Y105.25
;TIME_ELAPSED:744.659628
;LAYER:11
;TYPE:WALL-INNER
;MESH:BodyBox.stl(3)
G1 F1500 X145.746 Y114.75 E0.55295
G1 X155.246 Y114.75 E0.55295
G1 X155.246 Y105.25 E0.55295
G1 X145.746 Y105.25 E0.55295
G0 F9000 X145.246 Y104.75
G1 F1500 X145.246 Y115.25 E0.61115
G1 X155.746 Y115.25 E0.61115
G1 X155.746 Y104.75 E0.61115
G1 X145.246 Y104.75 E0.61115
G0 F9000 X144.746 Y104.25
;TYPE:WALL-OUTER
G1 F1800 X144.746 Y115.75 E0.66936
G1 X156.246 Y115.75 E0.66936
G1 X156.246 Y104.25 E0.66936
G1 X144.746 Y104.25 E0.66936
G1 F1200 E-2
G0 F9000 X145.079 Y104.58
G0 X146.096 Y105.917
M106 S191.2
;TYPE:FILL
G1 F1200 E2
G1 F750 X146.414 Y105.599 E0.01571
G0 F9000 X147.121 Y105.599
G1 F750 X146.096 Y106.624 E0.05062
G0 F9000 X146.096 Y107.331
G1 F750 X147.828 Y105.599 E0.08554
G0 F9000 X148.535 Y105.599
G1 F750 X146.096 Y108.038 E0.12046
G0 F9000 X146.096 Y108.745
G1 F750 X149.242 Y105.599 E0.15538
G0 F9000 X149.949 Y105.599
G1 F750 X146.096 Y109.452 E0.19029
G0 F9000 X146.096 Y110.159
G1 F750 X150.656 Y105.599 E0.22521
G0 F9000 X151.363 Y105.599
G1 F750 X146.096 Y110.867 E0.26016
G0 F9000 X146.096 Y111.574
G1 F750 X152.07 Y105.599 E0.29507
G0 F9000 X152.777 Y105.599
G1 F750 X146.096 Y112.281 E0.32999
G0 F9000 X146.096 Y112.988
G1 F750 X153.485 Y105.599 E0.36493
G0 F9000 X154.192 Y105.599
G1 F750 X146.096 Y113.695 E0.39985
G0 F9000 X146.098 Y114.4
G1 F750 X154.896 Y105.602 E0.43452
G0 F9000 X154.896 Y106.309
G1 F750 X146.805 Y114.4 E0.3996
G0 F9000 X147.512 Y114.4
G1 F750 X154.896 Y107.016 E0.36469
G0 F9000 X154.896 Y107.723
G1 F750 X148.219 Y114.4 E0.32977
G0 F9000 X148.927 Y114.4
G1 F750 X154.896 Y108.431 E0.2948
G0 F9000 X154.896 Y109.138
G1 F750 X149.634 Y114.4 E0.25988
G0 F9000 X150.341 Y114.4
G1 F750 X154.896 Y109.845 E0.22497
G0 F9000 X154.896 Y110.552
G1 F750 X151.048 Y114.4 E0.19005
G0 F9000 X151.755 Y114.4
G1 F750 X154.896 Y111.259 E0.15513
G0 F9000 X154.896 Y111.966
G1 F750 X152.462 Y114.4 E0.12021
G0 F9000 X153.169 Y114.4
G1 F750 X154.896 Y112.673 E0.08529
G0 F9000 X154.896 Y113.38
G1 F750 X153.876 Y114.4 E0.05038
G0 F9000 X154.583 Y114.4
G1 F750 X154.896 Y114.087 E0.01546
;MESH:NONMESH
G0 F300 Z3.6
G0 F9000 X145.579 Y105.08
G0 X145.246 Y104.75
;TIME_ELAPSED:764.733671
;LAYER:12
M106 S89.2
;TYPE:WALL-INNER
;MESH:BodyBox.stl(3)
G1 F1500 X145.246 Y115.25 E0.61115
G1 X155.746 Y115.25 E0.61115
G1 X155.746 Y104.75 E0.61115
G1 X145.246 Y104.75 E0.61115
G0 F9000 X144.746 Y104.25
;TYPE:WALL-OUTER
G1 F1800 X144.746 Y115.75 E0.66936
G1 X156.246 Y115.75 E0.66936
G1 X156.246 Y104.25 E0.66936
G1 X144.746 Y104.25 E0.66936
G0 F9000 X145.079 Y104.58
G0 X145.694 Y105.198
;TYPE:SKIN
G1 F1500 X155.294 Y105.198 E0.55877
G1 X155.294 Y114.798 E0.55877
G1 X145.694 Y114.798 E0.55877
G1 X145.694 Y105.198 E0.55877
G0 F9000 X155.044 Y105.547
G1 F1500 X154.945 Y105.448 E0.00815
G0 F9000 X154.238 Y105.448
G1 F1500 X155.044 Y106.254 E0.06635
G0 F9000 X155.044 Y106.961
G1 F1500 X153.531 Y105.448 E0.12454
G0 F9000 X152.824 Y105.448
G1 F1500 X155.044 Y107.668 E0.18274
G0 F9000 X155.044 Y108.375
G1 F1500 X152.117 Y105.448 E0.24093
G0 F9000 X151.41 Y105.448
G1 F1500 X155.044 Y109.083 E0.29917
G0 F9000 X155.044 Y109.79
G1 F1500 X150.703 Y105.448 E0.35737
G0 F9000 X149.996 Y105.448
G1 F1500 X155.044 Y110.497 E0.41557
G0 F9000 X155.044 Y111.204
G1 F1500 X149.289 Y105.448 E0.47376
G0 F9000 X148.582 Y105.448
G1 F1500 X155.044 Y111.911 E0.53196
G0 F9000 X155.044 Y112.618
G1 F1500 X147.874 Y105.448 E0.5902
G0 F9000 X147.167 Y105.448
G1 F1500 X155.044 Y113.325 E0.64839
G0 F9000 X155.044 Y114.032
G1 F1500 X146.46 Y105.448 E0.70659
G0 F9000 X145.944 Y105.639
G1 F1500 X154.853 Y114.548 E0.73334
G0 F9000 X154.146 Y114.548
G1 F1500 X145.944 Y106.346 E0.67514
G0 F9000 X145.944 Y107.053
G1 F1500 X153.439 Y114.548 E0.61695
G0 F9000 X152.732 Y114.548
G1 F1500 X145.944 Y107.76 E0.55875
G0 F9000 X145.944 Y108.467
G1 F1500 X152.024 Y114.548 E0.50051
G0 F9000 X151.317 Y114.548
G1 F1500 X145.944 Y109.174 E0.44232
G0 F9000 X145.944 Y109.882
G1 F1500 X150.61 Y114.548 E0.38408
G0 F9000 X149.903 Y114.548
G1 F1500 X145.944 Y110.589 E0.32588
G0 F9000 X145.944 Y111.296
G1 F1500 X149.196 Y114.548 E0.26769
G0 F9000 X148.489 Y114.548
G1 F1500 X145.944 Y112.003 E0.20949
G0 F9000 X145.944 Y112.71
G1 F1500 X147.782 Y114.548 E0.15129
G0 F9000 X147.075 Y114.548
G1 F1500 X145.944 Y113.417 E0.0931
G0 F9000 X145.944 Y114.124
G1 F1500 X146.368 Y114.548 E0.0349
G0 F9000 X146.368 Y114.49
;MESH:NONMESH
G0 F300 Z3.88
G0 F9000 X145.746 Y105.25
;TIME_ELAPSED:779.415047
;LAYER:13
;TYPE:WALL-INNER
;MESH:BodyBox.stl(3)
G1 F1500 X145.746 Y114.75 E0.55295
G1 X155.246 Y114.75 E0.55295
G1 X155.246 Y105.25 E0.55295
G1 X145.746 Y105.25 E0.55295
G0 F9000 X145.246 Y104.75
G1 F1500 X145.246 Y115.25 E0.61115
G1 X155.746 Y115.25 E0.61115
G1 X155.746 Y104.75 E0.61115
G1 X145.246 Y104.75 E0.61115
G0 F9000 X144.746 Y104.25
;TYPE:WALL-OUTER
G1 F1800 X144.746 Y115.75 E0.66936
G1 X156.246 Y115.75 E0.66936
G1 X156.246 Y104.25 E0.66936
G1 X144.746 Y104.25 E0.66936
G1 F1200 E-2
G0 F9000 X145.079 Y104.58
G0 X146.194 Y105.698
;TYPE:SKIN
G1 F1200 E2
G1 F1500 X154.794 Y105.698 E0.50057
G1 X154.794 Y114.298 E0.50057
G1 X146.194 Y114.298 E0.50057
G1 X146.194 Y105.698 E0.50057
G0 F9000 X146.444 Y106.7
G1 F1500 X147.196 Y105.948 E0.0619
G0 F9000 X147.903 Y105.948
G1 F1500 X146.444 Y107.407 E0.1201
G0 F9000 X146.444 Y108.115
G1 F1500 X148.611 Y105.948 E0.17838
G0 F9000 X149.318 Y105.948
G1 F1500 X146.444 Y108.822 E0.23657
G0 F9000 X146.444 Y109.529
G1 F1500 X150.025 Y105.948 E0.29477
G0 F9000 X150.732 Y105.948
G1 F1500 X146.444 Y110.236 E0.35297
G0 F9000 X146.444 Y110.943
G1 F1500 X151.439 Y105.948 E0.41116
G0 F9000 X152.146 Y105.948
G1 F1500 X146.444 Y111.65 E0.46936
G0 F9000 X146.444 Y112.357
G1 F1500 X152.853 Y105.948 E0.52755
G0 F9000 X153.56 Y105.948
G1 F1500 X146.444 Y113.064 E0.58575
G0 F9000 X146.444 Y113.771
G1 F1500 X154.267 Y105.948 E0.64395
G0 F9000 X154.544 Y106.379
G1 F1500 X146.874 Y114.049 E0.63135
G0 F9000 X147.581 Y114.049
G1 F1500 X154.544 Y107.086 E0.57316
G0 F9000 X154.544 Y107.793
G1 F1500 X148.288 Y114.049 E0.51496
G0 F9000 X148.995 Y114.049
G1 F1500 X154.544 Y108.5 E0.45676
G0 F9000 X154.544 Y109.207
G1 F1500 X149.702 Y114.049 E0.39857
G0 F9000 X150.409 Y114.049
G1 F1500 X154.544 Y109.914 E0.34037
G0 F9000 X154.544 Y110.621
G1 F1500 X151.116 Y114.049 E0.28217
G0 F9000 X151.824 Y114.049
G1 F1500 X154.544 Y111.328 E0.22394
G0 F9000 X154.544 Y112.035
G1 F1500 X152.531 Y114.049 E0.16574
G0 F9000 X153.238 Y114.049
G1 F1500 X154.544 Y112.743 E0.1075
G0 F9000 X154.544 Y113.45
G1 F1500 X153.945 Y114.049 E0.04931
;TIME_ELAPSED:793.646261
G1 F1200 E-2
G0 F9000 Z9
M140 S0
M205 X10 Y10
M82 ;absolute extrusion mode
M107
G91 ;Relative positioning
G1 E-2 F2700 ;Retract a bit
G1 E-2 Z0.2 F2400 ;Retract and raise Z
G1 X5 Y5 F3000 ;Wipe out
G1 Z10 ;Raise Z more
G90 ;Absolute positioning

G1 X0 Y220 ;Present print
M106 S0 ;Turn-off fan
M104 S0 ;Turn-off hotend
M140 S0 ;Turn-off bed

M84 X Y E ;Disable all steppers but Z

M82 ;absolute extrusion mode
M104 S0
;End of Gcode
;SETTING_3 {"global_quality": "[general]\\nversion = 4\\nname = Hyper-PETG 0.5mm
;SETTING_3  - para roldanitas\\ndefinition = creality_ender3pro\\n\\n[metadata]\
;SETTING_3 \ntype = quality_changes\\nquality_type = standard\\nsetting_version 
;SETTING_3 = 26\\n\\n[values]\\nacceleration_enabled = True\\nadaptive_layer_hei
;SETTING_3 ght_enabled = True\\nadhesion_type = skirt\\nbridge_settings_enabled 
;SETTING_3 = True\\njerk_enabled = True\\nlayer_height = 0.24\\nlayer_height_0 =
;SETTING_3  0.24\\nmaterial_bed_temperature = 75.0\\nmaterial_bed_temperature_la
;SETTING_3 yer_0 = 80.0\\nprint_sequence = one_at_a_time\\nrelative_extrusion = 
;SETTING_3 True\\nretraction_combing = all\\nuser_defined_print_order_enabled = 
;SETTING_3 True\\n\\n", "extruder_quality": ["[general]\\nversion = 4\\nname = H
;SETTING_3 yper-PETG 0.5mm - para roldanitas\\ndefinition = creality_ender3pro\\
;SETTING_3 n\\n[metadata]\\ntype = quality_changes\\nquality_type = standard\\ni
;SETTING_3 ntent_category = default\\nposition = 0\\nsetting_version = 26\\n\\n[
;SETTING_3 values]\\nacceleration_print = 500\\nalternate_extra_perimeter = True
;SETTING_3 \\nbottom_layers = 2\\nbridge_fan_speed = 75\\nbrim_line_count = 6\\n
;SETTING_3 cool_fan_enabled = True\\ncool_fan_speed = 35\\ncool_fan_speed_0 = 0\
;SETTING_3 \ncool_min_layer_time = 10\\ngroup_outer_walls = False\\ninfill_patte
;SETTING_3 rn = zigzag\\ninfill_sparse_density = 10.0\\njerk_print = 8\\nline_wi
;SETTING_3 dth = 0.5\\nmaterial_flow = 100.0\\nmaterial_print_temperature = 225.
;SETTING_3 0\\nmaterial_print_temperature_layer_0 = 230.0\\nretraction_amount = 
;SETTING_3 2.0\\nretraction_enable = True\\nretraction_hop = 0.2\\nretraction_ho
;SETTING_3 p_enabled = True\\nretraction_speed = 20.0\\nskirt_brim_minimal_lengt
;SETTING_3 h = 100.0\\nskirt_gap = 5.0\\nskirt_height = 2\\nskirt_line_count = 2
;SETTING_3 \\nspeed_layer_0 = 20\\nspeed_print = 50\\nspeed_travel = 150\\nspeed
;SETTING_3 _wall_0 = 30\\nsupport_angle = 55.0\\ntop_layers = 2\\nwall_line_coun
;SETTING_3 t = 2\\nxy_offset_layer_0 = -0.2\\nz_seam_position = middle\\nz_seam_
;SETTING_3 relative = True\\nz_seam_type = shortest\\nzig_zaggify_infill = True\
;SETTING_3 \n\\n"]}
